{
"type": "FeatureCollection",
"name": "new_routes_segmentation",
"crs": { "type": "name", "properties": { "name": "urn:ogc:def:crs:EPSG::32118" } },
"features": [
{ "type": "Feature", "properties": { "trip_id": "588", "route_id": "AS", "direction_id": 0, "shape_id": "108", "from_stop_id": "113", "to_stop_id": "89", "from_seq": 1, "to_seq": 2, "segment_length": 1246.5211117754645 }, "geometry": { "type": "LineString", "coordinates": [ [ 304881.84337079396937, 67829.480692513010581 ], [ 305090.240980511007365, 67870.709398728329688 ], [ 305193.604661933437455, 67095.880607095881714 ], [ 305427.478215454379097, 67190.773394187810482 ] ] } },
{ "type": "Feature", "properties": { "trip_id": "588", "route_id": "AS", "direction_id": 0, "shape_id": "108", "from_stop_id": "89", "to_stop_id": "25", "from_seq": 2, "to_seq": 3, "segment_length": 2303.563665549626 }, "geometry": { "type": "LineString", "coordinates": [ [ 305427.478215454379097, 67190.773394187810482 ], [ 305193.604661933437455, 67095.880607095881714 ], [ 304115.03543893492315, 65485.769830401332001 ], [ 304012.747566673671827, 65534.241961113024445 ] ] } },
{ "type": "Feature", "properties": { "trip_id": "588", "route_id": "AS", "direction_id": 0, "shape_id": "108", "from_stop_id": "25", "to_stop_id": "90", "from_seq": 3, "to_seq": 4, "segment_length": 1294.7338031005572 }, "geometry": { "type": "LineString", "coordinates": [ [ 304012.747566673671827, 65534.241961113024445 ], [ 304115.03543893492315, 65485.769830401332001 ], [ 303450.560302354220767, 64731.631169573840452 ], [ 303570.460884874977637, 64602.205307745287428 ] ] } },
{ "type": "Feature", "properties": { "trip_id": "588", "route_id": "AS", "direction_id": 0, "shape_id": "108", "from_stop_id": "90", "to_stop_id": "17", "from_seq": 4, "to_seq": 5, "segment_length": 1495.1690711437468 }, "geometry": { "type": "LineString", "coordinates": [ [ 303570.460884874977637, 64602.205307745287428 ], [ 303450.560302354220767, 64731.631169573840452 ], [ 302760.014363162685186, 63992.867920911688998 ], [ 302472.21975953533547, 64101.14957430458162 ] ] } },
{ "type": "Feature", "properties": { "trip_id": "588", "route_id": "AS", "direction_id": 0, "shape_id": "108", "from_stop_id": "17", "to_stop_id": "120", "from_seq": 5, "to_seq": 6, "segment_length": 5052.0292444527859 }, "geometry": { "type": "LineString", "coordinates": [ [ 302472.21975953533547, 64101.14957430458162 ], [ 302760.014363162685186, 63992.867920911688998 ], [ 302551.034235515864566, 61611.470802359945083 ], [ 302216.162182726315223, 60352.854137238464318 ], [ 301983.871362239355221, 60013.203284175993758 ], [ 302233.342978339467663, 59423.720538640234736 ] ] } },
{ "type": "Feature", "properties": { "trip_id": "588", "route_id": "AS", "direction_id": 0, "shape_id": "108", "from_stop_id": "120", "to_stop_id": "87", "from_seq": 6, "to_seq": 7, "segment_length": 3377.3176364142855 }, "geometry": { "type": "LineString", "coordinates": [ [ 302233.342978339467663, 59423.720538640234736 ], [ 301983.871362239355221, 60013.203284175993758 ], [ 300779.820800566114485, 60050.179611889660009 ], [ 299555.718565712275449, 59488.360051300755003 ], [ 299434.876668632088695, 59629.39921158488869 ] ] } },
{ "type": "Feature", "properties": { "trip_id": "576", "route_id": "AS", "direction_id": 1, "shape_id": "107", "from_stop_id": "87", "to_stop_id": "120", "from_seq": 1, "to_seq": 2, "segment_length": 3377.2521772949503 }, "geometry": { "type": "LineString", "coordinates": [ [ 299434.707647148985416, 59629.399224489578046 ], [ 299555.718565712275449, 59488.360051300755003 ], [ 300779.482776814140379, 60050.179576287031523 ], [ 301983.53333679784555, 60013.203193592446041 ], [ 302233.342978339467663, 59423.720538640234736 ] ] } },
{ "type": "Feature", "properties": { "trip_id": "576", "route_id": "AS", "direction_id": 1, "shape_id": "107", "from_stop_id": "120", "to_stop_id": "17", "from_seq": 2, "to_seq": 3, "segment_length": 5051.8864893642585 }, "geometry": { "type": "LineString", "coordinates": [ [ 302233.342978339467663, 59423.720538640234736 ], [ 301983.53333679784555, 60013.203193592446041 ], [ 302215.73970355297206, 60352.742962685719249 ], [ 302550.865527210698929, 61610.693406480495469 ], [ 302759.676519446715247, 63992.867794886966294 ], [ 302472.21975953533547, 64101.14957430458162 ] ] } },
{ "type": "Feature", "properties": { "trip_id": "576", "route_id": "AS", "direction_id": 1, "shape_id": "107", "from_stop_id": "17", "to_stop_id": "90", "from_seq": 3, "to_seq": 4, "segment_length": 1495.083112689168 }, "geometry": { "type": "LineString", "coordinates": [ [ 302472.21975953533547, 64101.14957430458162 ], [ 302759.676519446715247, 63992.867794886966294 ], [ 303450.391397364088334, 64731.631090793169278 ], [ 303570.460884874977637, 64602.205307745287428 ] ] } },
{ "type": "Feature", "properties": { "trip_id": "576", "route_id": "AS", "direction_id": 1, "shape_id": "107", "from_stop_id": "90", "to_stop_id": "25", "from_seq": 4, "to_seq": 5, "segment_length": 1294.69602078358 }, "geometry": { "type": "LineString", "coordinates": [ [ 303570.460884874977637, 64602.205307745287428 ], [ 303450.391397364088334, 64731.631090793169278 ], [ 304114.866551161976531, 65485.769736449990887 ], [ 304012.747566673671827, 65534.241961113024445 ] ] } },
{ "type": "Feature", "properties": { "trip_id": "576", "route_id": "AS", "direction_id": 1, "shape_id": "107", "from_stop_id": "25", "to_stop_id": "89", "from_seq": 5, "to_seq": 6, "segment_length": 2303.6300897369397 }, "geometry": { "type": "LineString", "coordinates": [ [ 304012.747566673671827, 65534.241961113024445 ], [ 304114.866551161976531, 65485.769736449990887 ], [ 305193.266959913133178, 67095.880369945196435 ], [ 305427.478215454379097, 67190.773394187810482 ] ] } },
{ "type": "Feature", "properties": { "trip_id": "576", "route_id": "AS", "direction_id": 1, "shape_id": "107", "from_stop_id": "89", "to_stop_id": "113", "from_seq": 6, "to_seq": 7, "segment_length": 1246.6463224624067 }, "geometry": { "type": "LineString", "coordinates": [ [ 305427.478215454379097, 67190.773394187810482 ], [ 305193.266959913133178, 67095.880369945196435 ], [ 305090.072147191560362, 67870.70928251100122 ], [ 304881.84337079396937, 67829.480692513010581 ] ] } },
{ "type": "Feature", "properties": { "trip_id": "385", "route_id": "ER", "direction_id": 0, "shape_id": "12", "from_stop_id": "17", "to_stop_id": "4", "from_seq": 1, "to_seq": 2, "segment_length": 832.61112737115661 }, "geometry": { "type": "LineString", "coordinates": [ [ 302472.050840150157455, 64101.149517860700144 ], [ 302759.423136660072487, 63992.867700379043526 ], [ 302996.794419335492421, 63903.899085315628326 ], [ 303266.83376778831007, 63871.143016653608356 ] ] } },
{ "type": "Feature", "properties": { "trip_id": "385", "route_id": "ER", "direction_id": 0, "shape_id": "12", "from_stop_id": "4", "to_stop_id": "18", "from_seq": 2, "to_seq": 3, "segment_length": 1567.2418612164515 }, "geometry": { "type": "LineString", "coordinates": [ [ 303266.83376778831007, 63871.143016653608356 ], [ 302996.794419335492421, 63903.899085315628326 ], [ 302969.991362288943492, 62712.560158580476127 ], [ 303073.475795386068057, 62708.04943227142212 ] ] } },
{ "type": "Feature", "properties": { "trip_id": "385", "route_id": "ER", "direction_id": 0, "shape_id": "12", "from_stop_id": "18", "to_stop_id": "19", "from_seq": 3, "to_seq": 4, "segment_length": 1408.8624401327575 }, "geometry": { "type": "LineString", "coordinates": [ [ 303073.475795386068057, 62708.04943227142212 ], [ 302969.991362288943492, 62712.560158580476127 ], [ 302762.063993969990406, 61669.291642275515187 ], [ 302965.393044889264274, 61538.999675701270462 ] ] } },
{ "type": "Feature", "properties": { "trip_id": "385", "route_id": "ER", "direction_id": 0, "shape_id": "12", "from_stop_id": "19", "to_stop_id": "8", "from_seq": 4, "to_seq": 5, "segment_length": 1886.9169939883259 }, "geometry": { "type": "LineString", "coordinates": [ [ 302965.393044889264274, 61538.999675701270462 ], [ 302762.063993969990406, 61669.291642275515187 ], [ 302316.468019792519044, 60348.442924592323834 ], [ 302516.199445424368605, 60195.705981151411834 ] ] } },
{ "type": "Feature", "properties": { "trip_id": "385", "route_id": "ER", "direction_id": 0, "shape_id": "12", "from_stop_id": "8", "to_stop_id": "20", "from_seq": 5, "to_seq": 6, "segment_length": 2489.3848160098523 }, "geometry": { "type": "LineString", "coordinates": [ [ 302516.199445424368605, 60195.705981151411834 ], [ 302316.468019792519044, 60348.442924592323834 ], [ 300283.446851706306916, 59686.239634839854261 ], [ 300365.846974635089282, 59629.941921241399541 ] ] } },
{ "type": "Feature", "properties": { "trip_id": "385", "route_id": "ER", "direction_id": 0, "shape_id": "12", "from_stop_id": "20", "to_stop_id": "87", "from_seq": 6, "to_seq": 7, "segment_length": 1040.0585801901784 }, "geometry": { "type": "LineString", "coordinates": [ [ 300365.846974635089282, 59629.941921241399541 ], [ 300283.446851706306916, 59686.239634839854261 ], [ 299555.549541008949745, 59488.360061445215251 ], [ 299434.369604181614704, 59629.399250310299976 ] ] } },
{ "type": "Feature", "properties": { "trip_id": "5351", "route_id": "ER", "direction_id": 0, "shape_id": "135", "from_stop_id": "17", "to_stop_id": "18", "from_seq": 1, "to_seq": 2, "segment_length": 1721.256741565157 }, "geometry": { "type": "LineString", "coordinates": [ [ 302472.388678921561223, 64101.149630751293444 ], [ 302759.760980375984218, 63992.867826392437564 ], [ 302835.191831567964982, 63753.586699469327868 ], [ 302968.555188930011354, 62712.781679098829045 ], [ 303082.512648789968807, 62712.93932079388469 ] ] } },
{ "type": "Feature", "properties": { "trip_id": "5351", "route_id": "ER", "direction_id": 0, "shape_id": "135", "from_stop_id": "18", "to_stop_id": "8", "from_seq": 2, "to_seq": 3, "segment_length": 2806.9797584061412 }, "geometry": { "type": "LineString", "coordinates": [ [ 303082.512648789968807, 62712.93932079388469 ], [ 302970.329264468280599, 62712.56029420865525 ], [ 302762.401943788630888, 61669.291768407878408 ], [ 302325.16731577453902, 60362.659806195028068 ], [ 302514.594203673361335, 60194.70600314407784 ] ] } },
{ "type": "Feature", "properties": { "trip_id": "5351", "route_id": "ER", "direction_id": 0, "shape_id": "135", "from_stop_id": "8", "to_stop_id": "20", "from_seq": 3, "to_seq": 4, "segment_length": 2502.6300509709808 }, "geometry": { "type": "LineString", "coordinates": [ [ 302514.594203673361335, 60194.70600314407784 ], [ 302327.364796402282082, 60361.327919834286149 ], [ 300283.784892078139819, 59686.239647789872834 ], [ 300366.185017577721737, 59629.941937955758476 ] ] } },
{ "type": "Feature", "properties": { "trip_id": "5351", "route_id": "ER", "direction_id": 0, "shape_id": "135", "from_stop_id": "20", "to_stop_id": "87", "from_seq": 4, "to_seq": 5, "segment_length": 1040.111569208972 }, "geometry": { "type": "LineString", "coordinates": [ [ 300366.185017577721737, 59629.941937955758476 ], [ 300283.784892078139819, 59686.239647789872834 ], [ 299555.718565712275449, 59488.360051300755003 ], [ 299434.707647148985416, 59629.399224489578046 ] ] } },
{ "type": "Feature", "properties": { "trip_id": "5350", "route_id": "ER", "direction_id": 0, "shape_id": "69", "from_stop_id": "17", "to_stop_id": "4", "from_seq": 1, "to_seq": 2, "segment_length": 832.61112736923042 }, "geometry": { "type": "LineString", "coordinates": [ [ 302472.388678921561223, 64101.149630751293444 ], [ 302759.760980375984218, 63992.867826392437564 ], [ 302997.132267113018315, 63903.899222167434345 ], [ 303267.171617060492281, 63871.143165836539993 ] ] } },
{ "type": "Feature", "properties": { "trip_id": "5350", "route_id": "ER", "direction_id": 0, "shape_id": "69", "from_stop_id": "4", "to_stop_id": "19", "from_seq": 2, "to_seq": 3, "segment_length": 2768.9389128744056 }, "geometry": { "type": "LineString", "coordinates": [ [ 303267.171617060492281, 63871.143165836539993 ], [ 302997.132267113018315, 63903.899222167434345 ], [ 302970.329264468280599, 62712.56029420865525 ], [ 302762.401943788630888, 61669.291768407878408 ], [ 302965.731000656436663, 61538.99981111985835 ] ] } },
{ "type": "Feature", "properties": { "trip_id": "5350", "route_id": "ER", "direction_id": 0, "shape_id": "69", "from_stop_id": "19", "to_stop_id": "20", "from_seq": 3, "to_seq": 4, "segment_length": 3873.4252196598795 }, "geometry": { "type": "LineString", "coordinates": [ [ 302965.731000656436663, 61538.99981111985835 ], [ 302762.401943788630888, 61669.291768407878408 ], [ 302316.806029925821349, 60348.443030379108677 ], [ 300283.784892078139819, 59686.239647789872834 ], [ 300366.185017577721737, 59629.941937955758476 ] ] } },
{ "type": "Feature", "properties": { "trip_id": "5350", "route_id": "ER", "direction_id": 0, "shape_id": "69", "from_stop_id": "20", "to_stop_id": "87", "from_seq": 4, "to_seq": 5, "segment_length": 1040.111569208972 }, "geometry": { "type": "LineString", "coordinates": [ [ 300366.185017577721737, 59629.941937955758476 ], [ 300283.784892078139819, 59686.239647789872834 ], [ 299555.718565712275449, 59488.360051300755003 ], [ 299434.707647148985416, 59629.399224489578046 ] ] } },
{ "type": "Feature", "properties": { "trip_id": "5301", "route_id": "ER", "direction_id": 1, "shape_id": "133", "from_stop_id": "87", "to_stop_id": "20", "from_seq": 1, "to_seq": 2, "segment_length": 1040.111569208972 }, "geometry": { "type": "LineString", "coordinates": [ [ 299434.707647148985416, 59629.399224489578046 ], [ 299555.718565712275449, 59488.360051300755003 ], [ 300283.784892078139819, 59686.239647789872834 ], [ 300366.185017577721737, 59629.941937955758476 ] ] } },
{ "type": "Feature", "properties": { "trip_id": "5301", "route_id": "ER", "direction_id": 1, "shape_id": "133", "from_stop_id": "20", "to_stop_id": "19", "from_seq": 2, "to_seq": 3, "segment_length": 3873.7985736350706 }, "geometry": { "type": "LineString", "coordinates": [ [ 300366.185017577721737, 59629.941937955758476 ], [ 300283.784892078139819, 59686.239647789872834 ], [ 302317.397547658823896, 60348.443215541381505 ], [ 302762.401943788630888, 61669.291768407878408 ], [ 302965.731000656436663, 61538.99981111985835 ] ] } },
{ "type": "Feature", "properties": { "trip_id": "5301", "route_id": "ER", "direction_id": 1, "shape_id": "133", "from_stop_id": "19", "to_stop_id": "4", "from_seq": 3, "to_seq": 4, "segment_length": 2768.9389128744056 }, "geometry": { "type": "LineString", "coordinates": [ [ 302965.731000656436663, 61538.99981111985835 ], [ 302762.401943788630888, 61669.291768407878408 ], [ 302970.329264468280599, 62712.56029420865525 ], [ 302997.132267113018315, 63903.899222167434345 ], [ 303267.171617060492281, 63871.143165836539993 ] ] } },
{ "type": "Feature", "properties": { "trip_id": "5301", "route_id": "ER", "direction_id": 1, "shape_id": "133", "from_stop_id": "4", "to_stop_id": "17", "from_seq": 4, "to_seq": 5, "segment_length": 832.61112736923042 }, "geometry": { "type": "LineString", "coordinates": [ [ 303267.171617060492281, 63871.143165836539993 ], [ 302997.132267113018315, 63903.899222167434345 ], [ 302759.760980375984218, 63992.867826392437564 ], [ 302472.388678921561223, 64101.149630751293444 ] ] } },
{ "type": "Feature", "properties": { "trip_id": "5302", "route_id": "ER", "direction_id": 1, "shape_id": "134", "from_stop_id": "87", "to_stop_id": "20", "from_seq": 1, "to_seq": 2, "segment_length": 1040.0850633161122 }, "geometry": { "type": "LineString", "coordinates": [ [ 299434.707647148985416, 59629.399224489578046 ], [ 299555.803078063414432, 59488.360046229230647 ], [ 300283.784892078139819, 59686.239647789872834 ], [ 300366.185017577721737, 59629.941937955758476 ] ] } },
{ "type": "Feature", "properties": { "trip_id": "5302", "route_id": "ER", "direction_id": 1, "shape_id": "134", "from_stop_id": "20", "to_stop_id": "8", "from_seq": 2, "to_seq": 3, "segment_length": 2517.5158085267949 }, "geometry": { "type": "LineString", "coordinates": [ [ 300366.185017577721737, 59629.941937955758476 ], [ 300283.784892078139819, 59686.239647789872834 ], [ 302350.772451088705566, 60359.780643478909042 ], [ 302520.850773278390989, 60185.15799815790524 ] ] } },
{ "type": "Feature", "properties": { "trip_id": "5302", "route_id": "ER", "direction_id": 1, "shape_id": "134", "from_stop_id": "8", "to_stop_id": "18", "from_seq": 3, "to_seq": 4, "segment_length": 2781.9447258407458 }, "geometry": { "type": "LineString", "coordinates": [ [ 302520.850773278390989, 60185.15799815790524 ], [ 302354.66005621192744, 60358.22720600781031 ], [ 302762.401943788630888, 61669.291768407878408 ], [ 302970.329264468280599, 62712.56029420865525 ], [ 303075.167107110028155, 62703.719247366316267 ] ] } },
{ "type": "Feature", "properties": { "trip_id": "5302", "route_id": "ER", "direction_id": 1, "shape_id": "134", "from_stop_id": "18", "to_stop_id": "17", "from_seq": 4, "to_seq": 5, "segment_length": 1660.0393830470232 }, "geometry": { "type": "LineString", "coordinates": [ [ 303075.167107110028155, 62703.719247366316267 ], [ 302973.962159192422405, 62711.45126936982706 ], [ 302772.793661719886586, 63698.927170309325447 ], [ 302677.65816511149751, 64011.604866118810605 ], [ 302472.388678921561223, 64101.149630751293444 ] ] } },
{ "type": "Feature", "properties": { "trip_id": "5299", "route_id": "ER", "direction_id": 1, "shape_id": "141", "from_stop_id": "4", "to_stop_id": "17", "from_seq": 1, "to_seq": 2, "segment_length": 832.69497191396829 }, "geometry": { "type": "LineString", "coordinates": [ [ 303267.053374719631393, 63871.132008768014202 ], [ 302996.929562944278587, 63903.888035202275205 ], [ 302759.558278288634028, 63992.856645926360216 ], [ 302472.185979369620327, 64101.138458156630804 ] ] } },
{ "type": "Feature", "properties": { "trip_id": "372", "route_id": "ER", "direction_id": 1, "shape_id": "9", "from_stop_id": "87", "to_stop_id": "20", "from_seq": 1, "to_seq": 2, "segment_length": 1040.0585801901784 }, "geometry": { "type": "LineString", "coordinates": [ [ 299434.369604181614704, 59629.399250310299976 ], [ 299555.549541008949745, 59488.360061445215251 ], [ 300283.446851706306916, 59686.239634839854261 ], [ 300365.846974635089282, 59629.941921241399541 ] ] } },
{ "type": "Feature", "properties": { "trip_id": "372", "route_id": "ER", "direction_id": 1, "shape_id": "9", "from_stop_id": "20", "to_stop_id": "8", "from_seq": 2, "to_seq": 3, "segment_length": 2489.4778093713171 }, "geometry": { "type": "LineString", "coordinates": [ [ 300365.846974635089282, 59629.941921241399541 ], [ 300283.446851706306916, 59686.239634839854261 ], [ 302317.059537526627537, 60348.443109727690171 ], [ 302516.199445424368605, 60195.705981151411834 ] ] } },
{ "type": "Feature", "properties": { "trip_id": "372", "route_id": "ER", "direction_id": 1, "shape_id": "9", "from_stop_id": "8", "to_stop_id": "19", "from_seq": 3, "to_seq": 4, "segment_length": 1886.2583435078982 }, "geometry": { "type": "LineString", "coordinates": [ [ 302516.199445424368605, 60195.705981151411834 ], [ 302317.059537526627537, 60348.443109727690171 ], [ 302762.063993969990406, 61669.291642275515187 ], [ 302965.393044889264274, 61538.999675701270462 ] ] } },
{ "type": "Feature", "properties": { "trip_id": "372", "route_id": "ER", "direction_id": 1, "shape_id": "9", "from_stop_id": "19", "to_stop_id": "18", "from_seq": 4, "to_seq": 5, "segment_length": 1408.8624401327575 }, "geometry": { "type": "LineString", "coordinates": [ [ 302965.393044889264274, 61538.999675701270462 ], [ 302762.063993969990406, 61669.291642275515187 ], [ 302969.991362288943492, 62712.560158580476127 ], [ 303073.475795386068057, 62708.04943227142212 ] ] } },
{ "type": "Feature", "properties": { "trip_id": "372", "route_id": "ER", "direction_id": 1, "shape_id": "9", "from_stop_id": "18", "to_stop_id": "4", "from_seq": 5, "to_seq": 6, "segment_length": 1567.2418612164515 }, "geometry": { "type": "LineString", "coordinates": [ [ 303073.475795386068057, 62708.04943227142212 ], [ 302969.991362288943492, 62712.560158580476127 ], [ 302996.794419335492421, 63903.899085315628326 ], [ 303266.83376778831007, 63871.143016653608356 ] ] } },
{ "type": "Feature", "properties": { "trip_id": "372", "route_id": "ER", "direction_id": 1, "shape_id": "9", "from_stop_id": "4", "to_stop_id": "17", "from_seq": 6, "to_seq": 7, "segment_length": 832.61112737115673 }, "geometry": { "type": "LineString", "coordinates": [ [ 303266.83376778831007, 63871.143016653608356 ], [ 302996.794419335492421, 63903.899085315628326 ], [ 302759.423136660072487, 63992.867700379043526 ], [ 302472.050840150157455, 64101.149517860700144 ] ] } },
{ "type": "Feature", "properties": { "trip_id": "706", "route_id": "RES", "direction_id": 0, "shape_id": "44", "from_stop_id": "62", "to_stop_id": "61", "from_seq": 1, "to_seq": 2, "segment_length": 0.0 }, "geometry": { "type": "Point", "coordinates": [ 317938.99882407131372, 47527.27050636025524 ] } },
{ "type": "Feature", "properties": { "trip_id": "706", "route_id": "RES", "direction_id": 0, "shape_id": "44", "from_stop_id": "61", "to_stop_id": "37", "from_seq": 2, "to_seq": 3, "segment_length": 0.0 }, "geometry": { "type": "Point", "coordinates": [ 317938.99882407131372, 47527.27050636025524 ] } },
{ "type": "Feature", "properties": { "trip_id": "706", "route_id": "RES", "direction_id": 0, "shape_id": "44", "from_stop_id": "37", "to_stop_id": "103", "from_seq": 3, "to_seq": 4, "segment_length": 925.5200214557957 }, "geometry": { "type": "LineString", "coordinates": [ [ 317938.99882407131372, 47527.27050636025524 ], [ 317850.232427690294571, 47479.306106680320227 ], [ 317858.13435921119526, 47361.615395147811796 ], [ 317866.82151462539332, 47269.467383994953707 ], [ 317806.737373016949277, 47261.549573402407987 ], [ 317732.294126002059784, 47240.272270745401329 ], [ 317660.339776724460535, 47240.100554476739489 ], [ 317634.954687181103509, 47235.598264672218647 ], [ 317414.189694614033215, 47159.564648820181901 ], [ 317343.98476424778346, 47134.969799425103702 ], [ 317277.160341138427611, 47112.60442919673369 ] ] } },
{ "type": "Feature", "properties": { "trip_id": "706", "route_id": "RES", "direction_id": 0, "shape_id": "44", "from_stop_id": "103", "to_stop_id": "105", "from_seq": 4, "to_seq": 5, "segment_length": 833.45908848636702 }, "geometry": { "type": "LineString", "coordinates": [ [ 317277.160341138427611, 47112.60442919673369 ], [ 317112.231819188338704, 47048.925284658165765 ], [ 317063.180839163833298, 47027.713352097191091 ], [ 316987.06801058689598, 46994.224550180515507 ], [ 316916.031284473079722, 46961.858578069804935 ], [ 316850.068236040708143, 46931.725752462822129 ], [ 316836.533409354859032, 46927.253136766121315 ], [ 316762.091571536264382, 46902.654192306792538 ], [ 316694.4217459402862, 46878.071239087083086 ], [ 316631.82588705222588, 46855.721219520091836 ], [ 316602.208519796025939, 46850.102511827069975 ], [ 316566.677543271973263, 46838.918368017701141 ], [ 316496.434666954737622, 46828.767564234098245 ] ] } },
{ "type": "Feature", "properties": { "trip_id": "706", "route_id": "RES", "direction_id": 0, "shape_id": "44", "from_stop_id": "105", "to_stop_id": "39", "from_seq": 5, "to_seq": 6, "segment_length": 903.0806459487942 }, "geometry": { "type": "LineString", "coordinates": [ [ 316496.434666954737622, 46828.767564234098245 ], [ 316394.031763747858349, 46814.104387362298439 ], [ 316315.322704003425315, 46803.936588902652147 ], [ 316300.928546517738141, 46805.015402453027491 ], [ 316096.967495450517163, 46775.697700578777585 ], [ 316031.798041238100268, 46767.783251408887736 ], [ 315992.025746692321263, 46759.924100450596598 ], [ 315980.185639138275292, 46754.346237075129466 ], [ 315902.326727967825718, 46741.963721334817819 ], [ 315877.783080285647884, 46738.579727162541531 ], [ 315827.002558643056545, 46731.808368761980091 ], [ 315759.330450871901121, 46706.123489376768703 ], [ 315691.683721922105178, 46668.224137100172811 ], [ 315624.878214054973796, 46632.548112361888343 ] ] } },
{ "type": "Feature", "properties": { "trip_id": "706", "route_id": "RES", "direction_id": 0, "shape_id": "44", "from_stop_id": "39", "to_stop_id": "104", "from_seq": 6, "to_seq": 7, "segment_length": 800.71223779645652 }, "geometry": { "type": "LineString", "coordinates": [ [ 315624.878214054973796, 46632.548112361888343 ], [ 315530.166979138506576, 46581.267653076974966 ], [ 315518.330887385469396, 46573.46960239890177 ], [ 315478.591777860419825, 46548.956264949963952 ], [ 315469.290752293774858, 46543.384519761428237 ], [ 315404.183182195352856, 46504.382630794927536 ], [ 315340.77044511801796, 46464.274354350040085 ], [ 315275.663792535080574, 46424.163133576657856 ], [ 315210.558713524078485, 46382.942023038245679 ], [ 315146.297267400543205, 46342.833677176793572 ], [ 315093.872108809824567, 46310.523242047143867 ], [ 315021.15657493530307, 46263.735981035599252 ], [ 314979.503324961406179, 46346.936773978872225 ] ] } },
{ "type": "Feature", "properties": { "trip_id": "706", "route_id": "RES", "direction_id": 0, "shape_id": "44", "from_stop_id": "104", "to_stop_id": "142", "from_seq": 7, "to_seq": 8, "segment_length": 0.0 }, "geometry": { "type": "Point", "coordinates": [ 314979.503324961406179, 46346.936773978872225 ] } },
{ "type": "Feature", "properties": { "trip_id": "706", "route_id": "RES", "direction_id": 0, "shape_id": "44", "from_stop_id": "142", "to_stop_id": "16", "from_seq": 8, "to_seq": 9, "segment_length": 917.88735671025461 }, "geometry": { "type": "LineString", "coordinates": [ [ 314979.503324961406179, 46346.936773978872225 ], [ 314725.712435922294389, 46247.59692442866799 ], [ 314591.197956843127031, 46196.24957021739101 ], [ 314464.303605447523296, 46143.809052420983789 ], [ 314427.925871742714662, 46129.30212382881291 ], [ 314388.032134452660102, 46181.416566389867512 ], [ 314373.60262261540629, 46200.26652455200383 ], [ 314335.314910613175016, 46297.913512402847118 ], [ 314333.615213273034897, 46301.241628231437062 ], [ 314315.750262662768364, 46345.625803371622169 ], [ 314312.346622658369597, 46354.50297053327813 ], [ 314292.884997445798945, 46348.91310212668759 ], [ 314246.351848829013761, 46332.610748054154101 ] ] } },
{ "type": "Feature", "properties": { "trip_id": "719", "route_id": "RES", "direction_id": 1, "shape_id": "132", "from_stop_id": "16", "to_stop_id": "149", "from_seq": 1, "to_seq": 2, "segment_length": 2832.544489106971 }, "geometry": { "type": "LineString", "coordinates": [ [ 314280.36459179315716, 46343.891880923467397 ], [ 314103.955606469302438, 46284.588495522802987 ], [ 313997.36143794900272, 46241.300429002949386 ], [ 314031.085066504951101, 46182.065224573947489 ], [ 314049.429974793340079, 46151.784209888122859 ], [ 314066.814862682891544, 46136.714815202656609 ], [ 314088.005524887877982, 46123.873623276049329 ], [ 314115.787454270001035, 46117.707834987559181 ], [ 314132.808079717855435, 46116.185596624556638 ], [ 314149.56560708739562, 46119.437902616620704 ], [ 314285.962968739157077, 46162.563406543187739 ], [ 314371.15855471289251, 46194.487359991449921 ], [ 314404.318611114751548, 46121.927154224125843 ], [ 314425.477286673092749, 46125.85491336305131 ], [ 314433.429735804209486, 46128.979693052686343 ], [ 314594.338395139202476, 46192.258068279901636 ], [ 314728.515373554022517, 46243.049575362645555 ], [ 314805.58379708864959, 46273.296690345232491 ], [ 314892.464458105678204, 46307.561987499226234 ], [ 314928.589776851062197, 46320.404991415394761 ], [ 314985.778886846732348, 46341.73025612008496 ], [ 314992.557493692263961, 46338.967788485693745 ], [ 315026.906030774640385, 46267.523216881680128 ], [ 315094.71873669535853, 46310.524965195116238 ], [ 315135.896708069369197, 46336.482779489626409 ], [ 315145.874635662068613, 46342.49967384115007 ], [ 315210.981795571104158, 46383.053937529155519 ], [ 315275.664478732447606, 46423.829994766427262 ], [ 315340.770904535194859, 46464.052261803270085 ], [ 315404.945819387678057, 46504.051074682218314 ], [ 315443.33131046971539, 46528.33910310731153 ], [ 315467.93294759694254, 46544.93634222511173 ], [ 315478.92485540593043, 46551.622082407222479 ], [ 315517.395214950898662, 46575.577533026553283 ], [ 315528.724276375724003, 46582.930333451084152 ], [ 315586.144249640754424, 46613.477605518877681 ], [ 315624.621429146965966, 46633.880132610269357 ], [ 315644.578486725920811, 46644.582697448393446 ], [ 315692.274453031539451, 46669.113761310138216 ], [ 315763.140309169481043, 46706.020539875360555 ], [ 315826.828976768068969, 46733.806840498662496 ], [ 315875.154406380781438, 46740.572941671634908 ], [ 315901.729122462740634, 46744.2944224915409 ], [ 315976.883270253019873, 46754.67226195922558 ], [ 315998.970070399693213, 46758.828611078657559 ], [ 316031.126542022277135, 46765.116676596655452 ], [ 316096.878499243408442, 46777.696349825848301 ], [ 316190.484429548727348, 46789.44899230144074 ] ] } },
{ "type": "Feature", "properties": { "trip_id": "719", "route_id": "RES", "direction_id": 1, "shape_id": "132", "from_stop_id": "149", "to_stop_id": "43", "from_seq": 2, "to_seq": 3, "segment_length": 0.0 }, "geometry": { "type": "Point", "coordinates": [ 316190.484429548727348, 46789.44899230144074 ] } },
{ "type": "Feature", "properties": { "trip_id": "719", "route_id": "RES", "direction_id": 1, "shape_id": "132", "from_stop_id": "43", "to_stop_id": "150", "from_seq": 3, "to_seq": 4, "segment_length": 205.73012950588085 }, "geometry": { "type": "LineString", "coordinates": [ [ 316190.484429548727348, 46789.44899230144074 ], [ 316315.404673708602786, 46805.158284166886006 ], [ 316394.622399023792241, 46814.994067628096673 ] ] } },
{ "type": "Feature", "properties": { "trip_id": "719", "route_id": "RES", "direction_id": 1, "shape_id": "132", "from_stop_id": "150", "to_stop_id": "151", "from_seq": 4, "to_seq": 5, "segment_length": 942.35121323048077 }, "geometry": { "type": "LineString", "coordinates": [ [ 316394.622399023792241, 46814.994067628096673 ], [ 316496.433431828161702, 46829.322795585430868 ], [ 316565.485403007769492, 46842.025015909763169 ], [ 316630.884952293883543, 46860.049935496332182 ], [ 316695.095246387470979, 46879.738457788720552 ], [ 316760.480597168731038, 46903.761019435667549 ], [ 316797.871389573847409, 46915.838681104301941 ], [ 316832.134839232836384, 46925.688495718888589 ], [ 316840.595372164912988, 46927.928641274003894 ], [ 316852.028691803512629, 46925.844724800088443 ], [ 316918.590199748694431, 46953.424855505516462 ], [ 316989.966379288234748, 46985.458488908479922 ], [ 317064.64245494332863, 47017.94459203005681 ], [ 317112.08147309103515, 47040.707470032481069 ], [ 317196.229990902647842, 47076.548173156392295 ], [ 317274.973316135990899, 47106.60280287234491 ], [ 317283.770571534638293, 47109.510520848372835 ] ] } },
{ "type": "Feature", "properties": { "trip_id": "719", "route_id": "RES", "direction_id": 1, "shape_id": "132", "from_stop_id": "151", "to_stop_id": "45", "from_seq": 5, "to_seq": 6, "segment_length": 2355.6809587147482 }, "geometry": { "type": "LineString", "coordinates": [ [ 317283.770571534638293, 47109.510520848372835 ], [ 317440.93302096152911, 47162.625766624769312 ], [ 317513.593873908102978, 47186.561054486424837 ], [ 317586.081530448049307, 47211.940254778892267 ], [ 317652.73799952538684, 47232.975452455873892 ], [ 317660.604047686385456, 47235.770354847081762 ], [ 317653.239786954130977, 47377.781810265543754 ], [ 317674.386557031422853, 47384.494999195027049 ], [ 317691.295467592193745, 47393.419074805045966 ], [ 317851.078922148910351, 47479.308144490722043 ], [ 317939.845313054334838, 47527.272554303795914 ], [ 318011.705163289560005, 47565.202719666434859 ], [ 318024.391635745414533, 47569.675424938322976 ], [ 318036.234310407890007, 47573.035630022874102 ], [ 318093.778947112092283, 47579.838642264861846 ], [ 318138.631679057958536, 47584.390104293459444 ], [ 318157.248854712583125, 47586.65660843095975 ], [ 318238.492025366635062, 47594.629283231151931 ], [ 318274.03602930821944, 47598.048204456150415 ], [ 318318.042062685242854, 47602.598665705176245 ], [ 318395.055247495183721, 47609.452138592976553 ], [ 318467.835897790442687, 47616.295868854460423 ], [ 318545.695283708861098, 47623.153014718714985 ], [ 318584.371815086808056, 47626.248118956529652 ], [ 318628.633391148236115, 47630.023736174516671 ], [ 318705.643210515088867, 47637.990897761963424 ], [ 318774.193735298875254, 47643.716496656998061 ], [ 318844.437105865916237, 47649.447031652089208 ], [ 318915.524011089059059, 47656.290854054968804 ], [ 318985.764313317427877, 47663.133190565378754 ], [ 319066.16215986199677, 47670.002304393739905 ], [ 319081.398668221954722, 47670.041498332095216 ], [ 319142.336100488493685, 47673.52997480949125 ], [ 319231.212809061806183, 47674.870423072090489 ], [ 319274.377114396542311, 47677.203439818753395 ], [ 319342.906572784588207, 47690.707534173168824 ], [ 319414.83038103801664, 47700.889739360711246 ] ] } },
{ "type": "Feature", "properties": { "trip_id": "719", "route_id": "RES", "direction_id": 1, "shape_id": "132", "from_stop_id": "45", "to_stop_id": "46", "from_seq": 6, "to_seq": 7, "segment_length": 0.0 }, "geometry": { "type": "Point", "coordinates": [ 319414.83038103801664, 47700.889739360711246 ] } },
{ "type": "Feature", "properties": { "trip_id": "719", "route_id": "RES", "direction_id": 1, "shape_id": "132", "from_stop_id": "46", "to_stop_id": "62", "from_seq": 7, "to_seq": 8, "segment_length": 505.59656086495312 }, "geometry": { "type": "LineString", "coordinates": [ [ 319414.83038103801664, 47700.889739360711246 ], [ 319391.580744227801915, 47851.852839012011827 ], [ 319469.422246290312614, 47864.271998826407071 ], [ 319554.038010888500139, 47875.59936842717434 ], [ 319577.290884706948418, 47724.636775146398577 ], [ 319575.5094939720002, 47726.075683178009058 ], [ 319544.794475884293206, 47721.552776839853323 ], [ 319542.256246152101085, 47721.101898664528562 ] ] } },
{ "type": "Feature", "properties": { "trip_id": "412", "route_id": "RS", "direction_id": 0, "shape_id": "144", "from_stop_id": "141", "to_stop_id": "112", "from_seq": 1, "to_seq": 2, "segment_length": 1196.1124732693534 }, "geometry": { "type": "LineString", "coordinates": [ [ 313729.642129520711023, 70947.770741208514664 ], [ 313688.563962376094423, 70802.552471372473519 ], [ 312833.688998732483014, 70643.883390992079512 ], [ 312768.093221809656825, 70806.901873937633354 ] ] } },
{ "type": "Feature", "properties": { "trip_id": "412", "route_id": "RS", "direction_id": 0, "shape_id": "144", "from_stop_id": "112", "to_stop_id": "113", "from_seq": 2, "to_seq": 3, "segment_length": 9102.482756087833 }, "geometry": { "type": "LineString", "coordinates": [ [ 312768.093221809656825, 70806.901873937633354 ], [ 312833.688998732483014, 70643.883390992079512 ], [ 310753.066550713963807, 70077.875336410987074 ], [ 309792.331988101184834, 70284.314069833722897 ], [ 309224.188742666854523, 70379.863305767634301 ], [ 308394.588919473928399, 70065.0485585979186 ], [ 307495.337156288675033, 69531.3776837849 ], [ 306185.343138309021015, 68085.080812443062314 ], [ 305090.722163116792217, 67870.698625058998005 ], [ 304882.831058554758783, 67829.47023971627641 ] ] } },
{ "type": "Feature", "properties": { "trip_id": "412", "route_id": "RS", "direction_id": 0, "shape_id": "144", "from_stop_id": "113", "to_stop_id": "17", "from_seq": 3, "to_seq": 4, "segment_length": 4956.1628302175304 }, "geometry": { "type": "LineString", "coordinates": [ [ 304882.831058554758783, 67829.47023971627641 ], [ 305090.722163116792217, 67870.698625058998005 ], [ 303693.203467661049217, 65673.541721913876245 ], [ 302660.049648843938485, 64030.798813817629707 ], [ 302473.199495685345028, 64101.138796892155369 ] ] } },
{ "type": "Feature", "properties": { "trip_id": "412", "route_id": "RS", "direction_id": 0, "shape_id": "144", "from_stop_id": "17", "to_stop_id": "114", "from_seq": 4, "to_seq": 5, "segment_length": 1720.6147138540646 }, "geometry": { "type": "LineString", "coordinates": [ [ 302473.199495685345028, 64101.138796892155369 ], [ 302660.049648843938485, 64030.798813817629707 ], [ 302527.797433617291972, 62756.693098753145023 ], [ 302288.558140441542491, 62775.937663122516824 ] ] } },
{ "type": "Feature", "properties": { "trip_id": "412", "route_id": "RS", "direction_id": 0, "shape_id": "144", "from_stop_id": "114", "to_stop_id": "87", "from_seq": 5, "to_seq": 6, "segment_length": 5572.4149302533906 }, "geometry": { "type": "LineString", "coordinates": [ [ 302288.558140441542491, 62775.937663122516824 ], [ 302527.797433617291972, 62756.693098753145023 ], [ 302551.591822615417186, 61611.570937997472356 ], [ 302288.218050000665244, 60596.948667751486937 ], [ 302075.009767210285645, 60350.91430088733614 ], [ 301633.196195049444214, 60124.043495342091774 ], [ 300774.379165297199506, 60044.948678245382325 ], [ 299556.022809512913227, 59488.348928251507459 ], [ 299481.319982467743102, 59575.304342982133676 ] ] } },
{ "type": "Feature", "properties": { "trip_id": "412", "route_id": "RS", "direction_id": 0, "shape_id": "144", "from_stop_id": "87", "to_stop_id": "118", "from_seq": 6, "to_seq": 7, "segment_length": 7324.5282134373429 }, "geometry": { "type": "LineString", "coordinates": [ [ 299481.319982467743102, 59575.304342982133676 ], [ 299556.022809512913227, 59488.348928251507459 ], [ 299646.777700197417289, 59249.924103127668786 ], [ 299124.76484618941322, 58130.938133719806501 ], [ 298185.076779292197898, 56818.635954116325593 ], [ 297962.590091024525464, 54776.197012730081042 ], [ 297215.669481176708359, 53565.024873317364836 ], [ 297764.501167426002212, 53258.792775563517353 ] ] } },
{ "type": "Feature", "properties": { "trip_id": "412", "route_id": "RS", "direction_id": 0, "shape_id": "144", "from_stop_id": "118", "to_stop_id": "88", "from_seq": 7, "to_seq": 8, "segment_length": 26238.570998745618 }, "geometry": { "type": "LineString", "coordinates": [ [ 297764.501167426002212, 53258.792775563517353 ], [ 297215.669481176708359, 53565.024873317364836 ], [ 296632.328558862849604, 52650.460189490680932 ], [ 296445.82584250922082, 52337.727511862656684 ], [ 296244.755186583963223, 51187.37914102616196 ], [ 296238.435282883991022, 50737.753147364732285 ], [ 296231.6447750061634, 50528.988350295701821 ], [ 296452.237132100912277, 49472.268490925176593 ], [ 296705.85596596315736, 48693.713544546859339 ], [ 298790.751022622163873, 44896.732053546365933 ], [ 299614.391723512322642, 44295.660702777320694 ], [ 305891.045049454085529, 44205.488200860832876 ], [ 311215.125874856195878, 45678.773043967426929 ], [ 312369.70101255987538, 46331.453016131046752 ], [ 314230.757599937147461, 46469.046109395843814 ], [ 314258.016705400601495, 46381.926797968248138 ] ] } },
{ "type": "Feature", "properties": { "trip_id": "37", "route_id": "RS", "direction_id": 0, "shape_id": "149", "from_stop_id": "141", "to_stop_id": "112", "from_seq": 1, "to_seq": 2, "segment_length": 1196.1041724811403 }, "geometry": { "type": "LineString", "coordinates": [ [ 313728.975494786805939, 70947.780607966051321 ], [ 313687.897314608853776, 70802.562341834869585 ], [ 312833.030776441388298, 70643.89335319933889 ], [ 312767.43501413136255, 70806.911841988243395 ] ] } },
{ "type": "Feature", "properties": { "trip_id": "37", "route_id": "RS", "direction_id": 0, "shape_id": "149", "from_stop_id": "112", "to_stop_id": "113", "from_seq": 2, "to_seq": 3, "segment_length": 9102.4754829831363 }, "geometry": { "type": "LineString", "coordinates": [ [ 312767.43501413136255, 70806.911841988243395 ], [ 312833.030776441388298, 70643.89335319933889 ], [ 310752.408281148120295, 70077.885483882491826 ], [ 309791.673738360230345, 70284.324302856897702 ], [ 309223.530502287321724, 70379.873589384253137 ], [ 308393.930652308859862, 70065.058916082300129 ], [ 307494.68728272622684, 69531.388129889935954 ], [ 306184.693139584327582, 68085.091373679169919 ], [ 305090.072147191560362, 67870.70928251100122 ], [ 304882.181039317627437, 67829.480915443331469 ] ] } },
{ "type": "Feature", "properties": { "trip_id": "37", "route_id": "RS", "direction_id": 0, "shape_id": "149", "from_stop_id": "113", "to_stop_id": "17", "from_seq": 3, "to_seq": 4, "segment_length": 4956.1583286529922 }, "geometry": { "type": "LineString", "coordinates": [ [ 304882.181039317627437, 67829.480915443331469 ], [ 305090.072147191560362, 67870.70928251100122 ], [ 303692.553260699904058, 65673.552502182850731 ], [ 302659.407745083270129, 64030.809687913308153 ], [ 302472.557598306739237, 64101.149687202261703 ] ] } },
{ "type": "Feature", "properties": { "trip_id": "37", "route_id": "RS", "direction_id": 0, "shape_id": "149", "from_stop_id": "17", "to_stop_id": "114", "from_seq": 4, "to_seq": 5, "segment_length": 1720.6147132308095 }, "geometry": { "type": "LineString", "coordinates": [ [ 302472.557598306739237, 64101.149687202261703 ], [ 302659.407745083270129, 64030.809687913308153 ], [ 302527.15541951340856, 62756.703984307547216 ], [ 302287.916128366370685, 62775.948569433203375 ] ] } },
{ "type": "Feature", "properties": { "trip_id": "37", "route_id": "RS", "direction_id": 0, "shape_id": "149", "from_stop_id": "114", "to_stop_id": "87", "from_seq": 5, "to_seq": 6, "segment_length": 5643.1977409381589 }, "geometry": { "type": "LineString", "coordinates": [ [ 302287.916128366370685, 62775.948569433203375 ], [ 302527.15541951340856, 62756.703984307547216 ], [ 302550.94970912480494, 61611.581821472849697 ], [ 302287.575848877371754, 60596.9595740607474 ], [ 302074.367545059765689, 60350.925225691156811 ], [ 301632.553953878348693, 60124.054458476210129 ], [ 300773.736918553244323, 60044.959715891658561 ], [ 299555.718565712275449, 59488.360051300755003 ], [ 299434.876668632088695, 59629.39921158488869 ] ] } },
{ "type": "Feature", "properties": { "trip_id": "399", "route_id": "RS", "direction_id": 1, "shape_id": "145", "from_stop_id": "88", "to_stop_id": "118", "from_seq": 1, "to_seq": 2, "segment_length": 26147.160020129559 }, "geometry": { "type": "LineString", "coordinates": [ [ 314230.588277979812119, 46469.045784484151227 ], [ 312369.531687461014371, 46331.452733710531902 ], [ 311214.956534855533391, 45678.772787908623286 ], [ 305890.706302176287863, 44205.487931861927791 ], [ 299614.222351932723541, 44295.660711583441298 ], [ 298790.581664766126778, 44896.732081157198991 ], [ 296705.855817941133864, 48693.38040439687029 ], [ 296452.067878712492529, 49472.268571929336758 ], [ 296231.475545743422117, 50528.988436335981532 ], [ 296244.67046693485463, 51187.157089957974677 ], [ 296445.825789247348439, 52337.616464769278537 ], [ 296632.328558862849604, 52650.460189490680932 ], [ 297215.50032123317942, 53565.024936890549725 ], [ 297764.332000490627252, 53258.792826607314055 ] ] } },
{ "type": "Feature", "properties": { "trip_id": "399", "route_id": "RS", "direction_id": 1, "shape_id": "145", "from_stop_id": "118", "to_stop_id": "87", "from_seq": 2, "to_seq": 3, "segment_length": 7324.7022396388375 }, "geometry": { "type": "LineString", "coordinates": [ [ 297764.332000490627252, 53258.792826607314055 ], [ 297215.50032123317942, 53565.024936890549725 ], [ 297962.590091024525464, 54776.197012730081042 ], [ 298184.907693634333555, 56818.6359955566586 ], [ 299124.76484618941322, 58130.938133719806501 ], [ 299646.777700197417289, 59249.924103127668786 ], [ 299555.853784809354693, 59488.3489383888882 ], [ 299481.235471108113416, 59575.30434890480683 ] ] } },
{ "type": "Feature", "properties": { "trip_id": "399", "route_id": "RS", "direction_id": 1, "shape_id": "145", "from_stop_id": "87", "to_stop_id": "114", "from_seq": 3, "to_seq": 4, "segment_length": 5571.1267475644127 }, "geometry": { "type": "LineString", "coordinates": [ [ 299481.235471108113416, 59575.30434890480683 ], [ 299555.853784809354693, 59488.3489383888882 ], [ 300780.294421274098568, 60046.503971875448769 ], [ 301633.196195049444214, 60124.043495342091774 ], [ 302079.994447677803691, 60354.358190290193306 ], [ 302285.006581605935935, 60598.502349210844841 ], [ 302551.845210376894102, 61611.793121858558152 ], [ 302527.966383698745631, 62756.693156468798406 ], [ 302288.727090083644725, 62775.937715375774133 ] ] } },
{ "type": "Feature", "properties": { "trip_id": "399", "route_id": "RS", "direction_id": 1, "shape_id": "145", "from_stop_id": "114", "to_stop_id": "17", "from_seq": 4, "to_seq": 5, "segment_length": 1720.4391643610013 }, "geometry": { "type": "LineString", "coordinates": [ [ 302288.727090083644725, 62775.937715375774133 ], [ 302527.966383698745631, 62756.693156468798406 ], [ 302660.049648843938485, 64030.798813817629707 ], [ 302473.368415070755873, 64101.138853361531801 ] ] } },
{ "type": "Feature", "properties": { "trip_id": "399", "route_id": "RS", "direction_id": 1, "shape_id": "145", "from_stop_id": "17", "to_stop_id": "113", "from_seq": 5, "to_seq": 6, "segment_length": 4956.0954838344014 }, "geometry": { "type": "LineString", "coordinates": [ [ 302473.368415070755873, 64101.138853361531801 ], [ 302660.049648843938485, 64030.798813817629707 ], [ 303693.203467661049217, 65673.541721913876245 ], [ 305090.890996436472051, 67870.698741290485486 ], [ 304882.999892816820648, 67829.470351201976882 ] ] } },
{ "type": "Feature", "properties": { "trip_id": "399", "route_id": "RS", "direction_id": 1, "shape_id": "145", "from_stop_id": "113", "to_stop_id": "112", "from_seq": 6, "to_seq": 7, "segment_length": 9099.2111339758922 }, "geometry": { "type": "LineString", "coordinates": [ [ 304882.999892816820648, 67829.470351201976882 ], [ 305090.890996436472051, 67870.698741290485486 ], [ 306185.765209372970276, 68085.081165510840947 ], [ 307507.991623842099216, 69536.498799003922613 ], [ 308394.588919473928399, 70065.0485585979186 ], [ 309226.807820586720482, 70377.423482914615306 ], [ 309786.082783900492359, 70287.63728259158961 ], [ 310755.426603460509796, 70079.877662458326085 ], [ 312833.857768736546859, 70643.883684010259458 ], [ 312768.261988090642262, 70806.902165457431693 ] ] } },
{ "type": "Feature", "properties": { "trip_id": "399", "route_id": "RS", "direction_id": 1, "shape_id": "145", "from_stop_id": "112", "to_stop_id": "141", "from_seq": 7, "to_seq": 8, "segment_length": 1196.1124732688311 }, "geometry": { "type": "LineString", "coordinates": [ [ 312768.261988090642262, 70806.902165457431693 ], [ 312833.857768736546859, 70643.883684010259458 ], [ 313688.73272875638213, 70802.552783907725825 ], [ 313729.810892585373949, 70947.7710546827293 ] ] } },
{ "type": "Feature", "properties": { "trip_id": "35", "route_id": "RS", "direction_id": 1, "shape_id": "147", "from_stop_id": "88", "to_stop_id": "118", "from_seq": 1, "to_seq": 2, "segment_length": 26147.284341544473 }, "geometry": { "type": "LineString", "coordinates": [ [ 314230.757599937147461, 46469.046109395843814 ], [ 312369.531687461014371, 46331.452733710531902 ], [ 311214.956534855533391, 45678.772787908623286 ], [ 305891.045049454085529, 44205.488200860832876 ], [ 299614.222351932723541, 44295.660711583441298 ], [ 298790.581664766126778, 44896.732081157198991 ], [ 296705.686694798874669, 48693.713619760055735 ], [ 296452.067878712492529, 49472.268571929336758 ], [ 296231.475545743422117, 50528.988436335981532 ], [ 296244.585859817045275, 51187.157132828695467 ], [ 296445.825789247348439, 52337.616464769278537 ], [ 296632.328558862849604, 52650.460189490680932 ], [ 297215.50032123317942, 53565.024936890549725 ], [ 297764.247417022415902, 53258.792852129212406 ] ] } },
{ "type": "Feature", "properties": { "trip_id": "35", "route_id": "RS", "direction_id": 1, "shape_id": "147", "from_stop_id": "118", "to_stop_id": "87", "from_seq": 2, "to_seq": 3, "segment_length": 7395.8837303983564 }, "geometry": { "type": "LineString", "coordinates": [ [ 297764.247417022415902, 53258.792852129212406 ], [ 297215.50032123317942, 53565.024936890549725 ], [ 297962.590091024525464, 54776.197012730081042 ], [ 298184.907693634333555, 56818.6359955566586 ], [ 299124.76484618941322, 58130.938133719806501 ], [ 299646.777700197417289, 59249.924103127668786 ], [ 299555.853784809354693, 59488.3489383888882 ], [ 299434.84286348731257, 59629.388109368395817 ] ] } },
{ "type": "Feature", "properties": { "trip_id": "733", "route_id": "RWS", "direction_id": 0, "shape_id": "27", "from_stop_id": "48", "to_stop_id": "49", "from_seq": 1, "to_seq": 2, "segment_length": 1532.2289198051014 }, "geometry": { "type": "LineString", "coordinates": [ [ 310447.373875757446513, 44642.376417782106728 ], [ 310609.816865387663711, 44744.769728192426555 ], [ 310622.507833296316676, 44752.561144025537942 ], [ 310828.093585458758753, 44881.672314735995315 ], [ 310861.93758180324221, 44900.599699273006991 ], [ 310889.018523127189837, 44911.744053280439402 ], [ 310921.186640821455512, 44918.45413501488656 ], [ 310966.909844321839046, 44920.742525446083164 ], [ 310980.458428963611368, 44920.762569339502079 ], [ 311026.204710108519066, 44907.504850520199398 ], [ 311049.081220354011748, 44898.6551720563657 ], [ 311071.964415390393697, 44885.363714457307651 ], [ 311095.701128894928843, 44867.63174455290573 ], [ 311110.963356120628305, 44854.329011457259185 ], [ 311133.031669735442847, 44819.937689173020772 ], [ 311149.169235637120437, 44787.758446345906123 ], [ 311162.768196090124547, 44754.464953736780444 ], [ 311167.885810096107889, 44730.042431139016117 ], [ 311167.964387402462307, 44677.850705257973459 ], [ 311165.440659365209285, 44666.742258673533797 ], [ 311164.608885982481297, 44656.746824140522222 ], [ 311155.330641537788324, 44632.302641591079009 ], [ 311128.302386219322216, 44585.622528266627342 ], [ 311113.934648280555848, 44566.723088945225754 ], [ 311089.409867859620135, 44544.477092936409463 ], [ 311059.798981161380652, 44525.554987571478705 ], [ 311020.867822053609416, 44509.950541741738562 ], [ 310882.923572437663097, 44448.671334352773556 ], [ 310851.611594135407358, 44434.189425194686919 ], [ 310818.607425710768439, 44418.594716011939454 ], [ 310771.216417049872689, 44396.316463767878304 ], [ 310755.13277522707358, 44391.851269965220126 ], [ 310745.82711070694495, 44385.174997670539597 ], [ 310743.304258072632365, 44372.956235243742412 ], [ 310745.425562955322675, 44370.072100312259863 ], [ 310743.304258072632365, 44372.956235243742412 ], [ 310750.940383990120608, 44362.973118701971543 ], [ 310764.49321019789204, 44360.771844035851245 ] ] } },
{ "type": "Feature", "properties": { "trip_id": "733", "route_id": "RWS", "direction_id": 0, "shape_id": "27", "from_stop_id": "49", "to_stop_id": "50", "from_seq": 2, "to_seq": 3, "segment_length": 4131.8587241995428 }, "geometry": { "type": "LineString", "coordinates": [ [ 310764.49321019789204, 44360.771844035851245 ], [ 311030.227572085452266, 44479.981910335103748 ], [ 311148.706290535163134, 44532.350863373503671 ], [ 311196.091946669272147, 44556.852453801686352 ], [ 311252.785629979916848, 44585.810320730350213 ], [ 311404.247756833559833, 44663.774162815432646 ], [ 311510.858672936330549, 44720.57253941953968 ], [ 311577.701151627348736, 44756.211442376312334 ], [ 311644.542988429428078, 44791.850948661609436 ], [ 311653.850823735934682, 44796.307425996383245 ], [ 311719.841628130932804, 44834.167206106081721 ], [ 311787.528872722119559, 44869.809341027837945 ], [ 311854.366904316062573, 44906.561203551937069 ], [ 311922.05284274276346, 44942.204568075110728 ], [ 311988.889556269336026, 44978.957644864261965 ], [ 311997.350170849822462, 44983.413185294310097 ], [ 312064.186140408448409, 45020.166941759584006 ], [ 312131.870035254454706, 45055.812224102999608 ], [ 312198.702860450430308, 45093.677657140862721 ], [ 312266.385438933037221, 45129.324169026214804 ], [ 312333.220608672359958, 45164.96989152286551 ], [ 312400.051423594006337, 45202.837142063675856 ], [ 312469.425540204741992, 45238.488341119591496 ], [ 312535.41012892650906, 45275.244927595194895 ], [ 312602.24269265163457, 45310.893078317458276 ], [ 312670.766193269751966, 45347.655187486045179 ], [ 312736.750721157470252, 45383.303105837396288 ], [ 312803.581344867357984, 45418.953073816177493 ], [ 312872.100923439487815, 45456.827508744863735 ], [ 312943.158027897588909, 45495.81747263638681 ], [ 313013.371566007030196, 45532.585707774094772 ], [ 313021.828984887339175, 45538.15288124037761 ], [ 313081.034478594141547, 45574.902441101890872 ], [ 313149.553170124592725, 45611.668981334099954 ], [ 313218.92778202611953, 45642.885351701144828 ], [ 313288.299821101536509, 45675.212834356323583 ], [ 313359.370650112628937, 45704.212628874731308 ], [ 313429.5922196637257, 45734.322034560056636 ], [ 313498.964508491393644, 45765.541027378880244 ], [ 313568.338245516119059, 45795.650207224949554 ], [ 313637.709378117346205, 45826.870499346397992 ], [ 313707.928659352939576, 45856.982543294303468 ], [ 313777.298632138059475, 45888.204142609632981 ], [ 313789.988449987198692, 45893.780058787982853 ], [ 313824.677304738783278, 45907.170236142053909 ], [ 313861.901900672994088, 45922.786248166768928 ], [ 313933.823134801583365, 45947.35128483617882 ], [ 314005.741796458547469, 45973.027482109850098 ], [ 314077.657853309705388, 45999.81483999628108 ], [ 314143.651004941435531, 46024.370665725029539 ], [ 314149.573391616053414, 46026.602895815471129 ], [ 314158.035754857468419, 46028.839978999261803 ], [ 314185.958543786779046, 46037.77706979825598 ], [ 314221.492670109786559, 46051.170724191819318 ], [ 314229.952853116788901, 46054.518352165854594 ], [ 314318.789674227300566, 46086.892872388583783 ], [ 314328.096425751456991, 46090.242247079506342 ], [ 314383.93438964523375, 46111.560249641006521 ], [ 314400.854679741023574, 46118.144839913584292 ], [ 314373.60262261540629, 46200.26652455200383 ] ] } },
{ "type": "Feature", "properties": { "trip_id": "733", "route_id": "RWS", "direction_id": 0, "shape_id": "27", "from_stop_id": "50", "to_stop_id": "51", "from_seq": 3, "to_seq": 4, "segment_length": 0.0 }, "geometry": { "type": "Point", "coordinates": [ 314373.60262261540629, 46200.26652455200383 ] } },
{ "type": "Feature", "properties": { "trip_id": "733", "route_id": "RWS", "direction_id": 0, "shape_id": "27", "from_stop_id": "51", "to_stop_id": "52", "from_seq": 4, "to_seq": 5, "segment_length": 0.0 }, "geometry": { "type": "Point", "coordinates": [ 314373.60262261540629, 46200.26652455200383 ] } },
{ "type": "Feature", "properties": { "trip_id": "733", "route_id": "RWS", "direction_id": 0, "shape_id": "27", "from_stop_id": "52", "to_stop_id": "145", "from_seq": 5, "to_seq": 6, "segment_length": 0.0 }, "geometry": { "type": "Point", "coordinates": [ 314373.60262261540629, 46200.26652455200383 ] } },
{ "type": "Feature", "properties": { "trip_id": "733", "route_id": "RWS", "direction_id": 0, "shape_id": "27", "from_stop_id": "145", "to_stop_id": "16", "from_seq": 6, "to_seq": 7, "segment_length": 235.51276239270365 }, "geometry": { "type": "LineString", "coordinates": [ [ 314373.60262261540629, 46200.26652455200383 ], [ 314335.314910613175016, 46297.913512402847118 ], [ 314312.346622658369597, 46354.50297053327813 ], [ 314292.884997445798945, 46348.91310212668759 ], [ 314246.351848829013761, 46332.610748054154101 ] ] } },
{ "type": "Feature", "properties": { "trip_id": "749", "route_id": "RWS", "direction_id": 1, "shape_id": "35", "from_stop_id": "16", "to_stop_id": "55", "from_seq": 1, "to_seq": 2, "segment_length": 4670.3092626780772 }, "geometry": { "type": "LineString", "coordinates": [ [ 314280.364164139318746, 46344.11397350988409 ], [ 314102.352075692673679, 46281.920325485072681 ], [ 314005.067081821383908, 46240.648696350093815 ], [ 313925.545863020583056, 46207.184948092144623 ], [ 313875.631518644746393, 46187.102990069121006 ], [ 313854.482064840849489, 46178.179716338956496 ], [ 313823.181111104087904, 46164.795707962097367 ], [ 313765.654628354881424, 46140.258440856014204 ], [ 313762.609170816082042, 46138.920228708724608 ], [ 313725.046382521337364, 46123.526178089203313 ], [ 313704.739112970768474, 46116.825824508610822 ], [ 313682.742602720973082, 46107.901476585713681 ], [ 313777.975973015010823, 45888.2054008812338 ], [ 313708.606003082357347, 45856.983795231099066 ], [ 313638.386724595737178, 45826.871744870499242 ], [ 313569.015594845754094, 45795.651446412826772 ], [ 313499.641860571864527, 45765.542260230540705 ], [ 313430.269574594276492, 45734.323261076926428 ], [ 313360.048007794073783, 45704.213848978899478 ], [ 313288.977181430323981, 45675.214047969908279 ], [ 313219.605145308363717, 45642.886558977101231 ], [ 313150.230536257731728, 45611.670182275251136 ], [ 313081.711848084058147, 45574.903635786140512 ], [ 313040.424133069231175, 45556.730333461062401 ], [ 313008.104394494439475, 45542.570661903795553 ], [ 312939.586301849980373, 45504.694967931667634 ], [ 312869.374061447626445, 45466.816969601735764 ], [ 312799.161104404949583, 45428.939637090101314 ], [ 312732.330549663573038, 45393.289708649645036 ], [ 312667.194722742366139, 45356.53281288054859 ], [ 312597.822659582016058, 45320.879760700649058 ], [ 312530.145295828056987, 45284.119756593609054 ], [ 312465.005643279582728, 45248.475102059688652 ], [ 312396.480208161869086, 45211.714896764307923 ], [ 312329.645763428881764, 45176.068602916202508 ], [ 312262.812512616626918, 45139.312449934725009 ], [ 312195.978599833149929, 45102.556900229370513 ], [ 312128.295439384470228, 45066.911031564945006 ], [ 312059.764854940411169, 45031.264404741123144 ], [ 311992.927168279362377, 44995.621150103310356 ], [ 311984.466564998612739, 44991.165614671146614 ], [ 311979.982584619545378, 44988.715347827521327 ], [ 311916.783157118654344, 44954.411216922351741 ], [ 311849.945865795598365, 44917.658790581146604 ], [ 311783.107912533974741, 44880.90696756705438 ], [ 311715.420748201548122, 44845.264872672240017 ], [ 311648.579733058053534, 44809.624726186833868 ], [ 311639.271911329822615, 44805.168255420539936 ], [ 311573.278705837670714, 44768.419655180092377 ], [ 311506.438038694439456, 44731.670329526343266 ], [ 311458.202566263498738, 44710.49683171898505 ], [ 311424.348957112582866, 44698.229502699425211 ], [ 311389.641602639923804, 44690.402876782674866 ], [ 311363.395507982932031, 44687.031229566389811 ], [ 311337.989413957635406, 44688.102818296923942 ], [ 311301.562915664108004, 44696.930949094952666 ], [ 311268.518687895324547, 44709.095790363855485 ], [ 311254.107743065571412, 44719.068095692018687 ], [ 311237.168187297531404, 44721.263344406077522 ], [ 311223.620918460714165, 44720.132369367551291 ], [ 311202.460744525538757, 44713.437594143484603 ], [ 311183.005873209214769, 44698.972196662965871 ], [ 311177.08822955773212, 44692.300489095781813 ], [ 311168.64183881750796, 44677.851725227475981 ], [ 311166.118111795803998, 44666.743278412184736 ], [ 311165.286339324899018, 44656.74784380269557 ], [ 311156.008097112586256, 44632.303660406352719 ], [ 311128.979846058296971, 44585.623544613416016 ], [ 311114.612109844572842, 44566.724103979162464 ], [ 311090.087331457412802, 44544.478105731286632 ], [ 311085.011332708934788, 44541.139124893554254 ], [ 311060.476446486194618, 44525.555997661351284 ], [ 311021.545288802473806, 44509.951548276869289 ], [ 310883.601044782961253, 44448.672328290529549 ], [ 310852.289067804347724, 44434.190416270248534 ], [ 310819.284900803992059, 44418.595704075174581 ], [ 310771.893894177628681, 44396.317447503111907 ], [ 310755.810252761584707, 44391.852252231823513 ], [ 310750.903690582315903, 44388.291653586340544 ], [ 310746.50458885228727, 44385.175979087398446 ], [ 310743.981737332767807, 44372.957216428345419 ], [ 310751.617864162020851, 44362.974100584775442 ], [ 310765.170690571889281, 44360.772827155022242 ], [ 310783.790100857033394, 44368.573121498331602 ], [ 310800.96982926275814, 44376.37136634025228 ], [ 310864.188767675368581, 44404.225294251242303 ], [ 310891.269889640563633, 44416.48011415352812 ], [ 311030.905041572346818, 44479.982917724228173 ] ] } },
{ "type": "Feature", "properties": { "trip_id": "749", "route_id": "RWS", "direction_id": 1, "shape_id": "35", "from_stop_id": "55", "to_stop_id": "56", "from_seq": 2, "to_seq": 3, "segment_length": 0.0 }, "geometry": { "type": "Point", "coordinates": [ 311030.905041572346818, 44479.982917724228173 ] } },
{ "type": "Feature", "properties": { "trip_id": "749", "route_id": "RWS", "direction_id": 1, "shape_id": "35", "from_stop_id": "56", "to_stop_id": "57", "from_seq": 3, "to_seq": 4, "segment_length": 0.0 }, "geometry": { "type": "Point", "coordinates": [ 311030.905041572346818, 44479.982917724228173 ] } },
{ "type": "Feature", "properties": { "trip_id": "749", "route_id": "RWS", "direction_id": 1, "shape_id": "35", "from_stop_id": "57", "to_stop_id": "58", "from_seq": 4, "to_seq": 5, "segment_length": 0.0 }, "geometry": { "type": "Point", "coordinates": [ 311030.905041572346818, 44479.982917724228173 ] } },
{ "type": "Feature", "properties": { "trip_id": "749", "route_id": "RWS", "direction_id": 1, "shape_id": "35", "from_stop_id": "58", "to_stop_id": "49", "from_seq": 5, "to_seq": 6, "segment_length": 153.39681129788497 }, "geometry": { "type": "LineString", "coordinates": [ [ 311030.905041572346818, 44479.982917724228173 ], [ 310890.602872409217525, 44417.967733740952099 ] ] } },
{ "type": "Feature", "properties": { "trip_id": "749", "route_id": "RWS", "direction_id": 1, "shape_id": "35", "from_stop_id": "49", "to_stop_id": "48", "from_seq": 6, "to_seq": 7, "segment_length": 2182.2882099246358 }, "geometry": { "type": "LineString", "coordinates": [ [ 310891.269889640563633, 44416.48011415352812 ], [ 311030.905041572346818, 44479.982917724228173 ], [ 311149.383755239308812, 44532.351881582631904 ], [ 311196.769409135798924, 44556.853476340227644 ], [ 311253.463089801778551, 44585.811348445218755 ], [ 311273.77338297147071, 44594.725905691921071 ], [ 311287.302286618330982, 44608.072055704142258 ], [ 311294.908469103451353, 44618.077815820935939 ], [ 311299.960638321412262, 44636.963410682197718 ], [ 311299.93018937506713, 44656.951729783395422 ], [ 311298.219642518786713, 44668.053771865757881 ], [ 311287.177248330088332, 44690.246256813246873 ], [ 311277.847112112096511, 44700.226248799815949 ], [ 311268.518687895324547, 44709.095790363855485 ], [ 311254.107743065571412, 44719.068095692018687 ], [ 311234.605895344517194, 44735.695505747018615 ], [ 311220.184969620488118, 44752.33065085587441 ], [ 311198.114374957745895, 44787.832174304581713 ], [ 311188.774431070312858, 44804.475053099216893 ], [ 311163.301917436008807, 44849.965734560806595 ], [ 311133.6007686657249, 44892.118761664773047 ], [ 311117.483468268008437, 44910.972491605294636 ], [ 311096.288859048218001, 44927.59772973707004 ], [ 311067.469976316438988, 44946.432578668376664 ], [ 311039.509590251895133, 44957.495562483054528 ], [ 311014.097875382576603, 44963.010110825423908 ], [ 310973.449067241919693, 44965.170794112826115 ], [ 310953.126311935833655, 44965.140756757362396 ], [ 310923.495501592347864, 44960.655201941692212 ], [ 310899.797028374450747, 44952.847085684254125 ], [ 310817.727106739999726, 44906.087416225724155 ], [ 310597.760480892146006, 44766.96178732743283 ], [ 310442.934464185906108, 44667.910851735221513 ], [ 310385.379000939021353, 44647.841685902872996 ], [ 310364.217402224137913, 44641.482440996041987 ], [ 310340.516238641226664, 44634.453437244286761 ], [ 310293.951968178793322, 44626.615421427813999 ], [ 310188.961525329679716, 44615.365822642030253 ], [ 310172.03118825389538, 44610.900729221822985 ], [ 310145.793378300906625, 44600.870616133630392 ], [ 310063.711802111181896, 44556.340227205495466 ], [ 310053.555884423665702, 44551.884598381402611 ], [ 310038.32198504061671, 44545.201181247095519 ], [ 310017.160247000865638, 44538.509788228868274 ], [ 309992.60965120914625, 44532.924354216876964 ], [ 309960.43455335625913, 44529.549688630140736 ], [ 309926.570221207162831, 44522.84150892496109 ], [ 309934.20806731202174, 44510.636625824503426 ], [ 309951.876428628747817, 44470.239406924221839 ] ] } },
{ "type": "Feature", "properties": { "trip_id": "47", "route_id": "SB", "direction_id": 0, "shape_id": "126", "from_stop_id": "87", "to_stop_id": "24", "from_seq": 1, "to_seq": 2, "segment_length": 3033.8400930447492 }, "geometry": { "type": "LineString", "coordinates": [ [ 299434.961170898284763, 59629.288157156843226 ], [ 299555.887590415601153, 59488.360041159125103 ], [ 299549.65660923399264, 58475.936750383043545 ], [ 298770.626034254266415, 57616.182165157886629 ], [ 299044.222730398119893, 57314.203083903557854 ], [ 298870.890357603086159, 57109.788713993184501 ] ] } },
{ "type": "Feature", "properties": { "trip_id": "51", "route_id": "SB", "direction_id": 0, "shape_id": "137", "from_stop_id": "17", "to_stop_id": "115", "from_seq": 1, "to_seq": 2, "segment_length": 4571.1649897837142 }, "geometry": { "type": "LineString", "coordinates": [ [ 302472.388678921561223, 64101.149630751293444 ], [ 302759.760980375984218, 63992.867826392437564 ], [ 302550.527038938656915, 61612.247965282156656 ], [ 302219.95833346771542, 60374.39860217252135 ], [ 301771.454604872444179, 60231.580910911216051 ], [ 301754.356109669141006, 60352.73028125280689 ] ] } },
{ "type": "Feature", "properties": { "trip_id": "51", "route_id": "SB", "direction_id": 0, "shape_id": "137", "from_stop_id": "115", "to_stop_id": "87", "from_seq": 2, "to_seq": 3, "segment_length": 2573.7592616860225 }, "geometry": { "type": "LineString", "coordinates": [ [ 301754.356109669141006, 60352.73028125280689 ], [ 301771.454604872444179, 60231.580910911216051 ], [ 299556.056615120032802, 59488.36003102032555 ], [ 299481.438306926982477, 59575.426487462653313 ] ] } },
{ "type": "Feature", "properties": { "trip_id": "51", "route_id": "SB", "direction_id": 0, "shape_id": "137", "from_stop_id": "87", "to_stop_id": "11", "from_seq": 3, "to_seq": 4, "segment_length": 1422.0444107443625 }, "geometry": { "type": "LineString", "coordinates": [ [ 299481.438306926982477, 59575.426487462653313 ], [ 299556.056615120032802, 59488.36003102032555 ], [ 299549.825657053792384, 58475.936740102617478 ], [ 299825.455652583390474, 58370.984917541551113 ] ] } },
{ "type": "Feature", "properties": { "trip_id": "51", "route_id": "SB", "direction_id": 0, "shape_id": "137", "from_stop_id": "11", "to_stop_id": "24", "from_seq": 4, "to_seq": 5, "segment_length": 2151.382449943656 }, "geometry": { "type": "LineString", "coordinates": [ [ 299825.455652583390474, 58370.984917541551113 ], [ 299549.825657053792384, 58475.936740102617478 ], [ 298755.830039000429679, 57600.7490026960877 ], [ 299044.307281901710667, 57314.314120679700864 ], [ 298870.890340671583544, 57109.677666334726382 ] ] } },
{ "type": "Feature", "properties": { "trip_id": "51", "route_id": "SB", "direction_id": 0, "shape_id": "137", "from_stop_id": "24", "to_stop_id": "111", "from_seq": 5, "to_seq": 6, "segment_length": 880.79392671433834 }, "geometry": { "type": "LineString", "coordinates": [ [ 298870.890340671583544, 57109.677666334726382 ], [ 299044.307281901710667, 57314.314120679700864 ], [ 298611.727345445135143, 57748.023910762967716 ] ] } },
{ "type": "Feature", "properties": { "trip_id": "39", "route_id": "SB", "direction_id": 0, "shape_id": "142", "from_stop_id": "17", "to_stop_id": "115", "from_seq": 1, "to_seq": 2, "segment_length": 4571.1683300262239 }, "geometry": { "type": "LineString", "coordinates": [ [ 302472.388678921561223, 64101.149630751293444 ], [ 302759.760980375984218, 63992.867826392437564 ], [ 302550.527077208389528, 61612.136917047289899 ], [ 302219.95833346771542, 60374.39860217252135 ], [ 301771.454604872444179, 60231.580910911216051 ], [ 301754.356109669141006, 60352.73028125280689 ] ] } },
{ "type": "Feature", "properties": { "trip_id": "39", "route_id": "SB", "direction_id": 0, "shape_id": "142", "from_stop_id": "115", "to_stop_id": "87", "from_seq": 2, "to_seq": 3, "segment_length": 2573.6493346223715 }, "geometry": { "type": "LineString", "coordinates": [ [ 301754.356109669141006, 60352.73028125280689 ], [ 301771.454604872444179, 60231.580910911216051 ], [ 299556.056615120032802, 59488.36003102032555 ], [ 299481.607329642400146, 59575.426475625798048 ] ] } },
{ "type": "Feature", "properties": { "trip_id": "39", "route_id": "SB", "direction_id": 0, "shape_id": "142", "from_stop_id": "87", "to_stop_id": "11", "from_seq": 3, "to_seq": 4, "segment_length": 1421.9334676845288 }, "geometry": { "type": "LineString", "coordinates": [ [ 299481.607329642400146, 59575.426475625798048 ], [ 299556.056615120032802, 59488.36003102032555 ], [ 299549.994704872544389, 58475.936729826447845 ], [ 299825.624702798377257, 58370.984913557695108 ] ] } },
{ "type": "Feature", "properties": { "trip_id": "39", "route_id": "SB", "direction_id": 0, "shape_id": "142", "from_stop_id": "11", "to_stop_id": "24", "from_seq": 4, "to_seq": 5, "segment_length": 2051.8898869026743 }, "geometry": { "type": "LineString", "coordinates": [ [ 299825.624702798377257, 58370.984913557695108 ], [ 299549.994704872544389, 58475.936729826447845 ], [ 298831.56938266690122, 57581.525408463465283 ], [ 299044.222730398119893, 57314.203083903557854 ], [ 298870.805801164649893, 57109.677679225264001 ] ] } },
{ "type": "Feature", "properties": { "trip_id": "61", "route_id": "SB", "direction_id": 1, "shape_id": "125", "from_stop_id": "24", "to_stop_id": "87", "from_seq": 1, "to_seq": 2, "segment_length": 3033.075508846176 }, "geometry": { "type": "LineString", "coordinates": [ [ 298870.890357603086159, 57109.788713993184501 ], [ 299044.30726757022785, 57314.203072994336253 ], [ 298771.302304050303064, 57616.182052913092775 ], [ 299549.825657053792384, 58475.936740102617478 ], [ 299555.887590415601153, 59488.360041159125103 ], [ 299435.214711600565352, 59629.399185786824091 ] ] } },
{ "type": "Feature", "properties": { "trip_id": "624", "route_id": "SB", "direction_id": 1, "shape_id": "136", "from_stop_id": "111", "to_stop_id": "24", "from_seq": 1, "to_seq": 2, "segment_length": 886.03267938704244 }, "geometry": { "type": "LineString", "coordinates": [ [ 298602.59753045369871, 57746.248864203851554 ], [ 299044.307281901710667, 57314.314120679700864 ], [ 298870.890340671583544, 57109.677666334726382 ] ] } },
{ "type": "Feature", "properties": { "trip_id": "624", "route_id": "SB", "direction_id": 1, "shape_id": "136", "from_stop_id": "24", "to_stop_id": "11", "from_seq": 2, "to_seq": 3, "segment_length": 2135.9484157764105 }, "geometry": { "type": "LineString", "coordinates": [ [ 298870.890340671583544, 57109.677666334726382 ], [ 299044.307281901710667, 57314.314120679700864 ], [ 298767.577441936708055, 57583.867784423084231 ], [ 299549.825657053792384, 58475.936740102617478 ], [ 299825.455652583390474, 58370.984917541551113 ] ] } },
{ "type": "Feature", "properties": { "trip_id": "624", "route_id": "SB", "direction_id": 1, "shape_id": "136", "from_stop_id": "11", "to_stop_id": "87", "from_seq": 3, "to_seq": 4, "segment_length": 1422.0731976321456 }, "geometry": { "type": "LineString", "coordinates": [ [ 299825.455652583390474, 58370.984917541551113 ], [ 299549.825657053792384, 58475.936740102617478 ], [ 299556.141120813146699, 59488.248977992938308 ], [ 299481.438306926982477, 59575.426487462653313 ] ] } },
{ "type": "Feature", "properties": { "trip_id": "624", "route_id": "SB", "direction_id": 1, "shape_id": "136", "from_stop_id": "87", "to_stop_id": "115", "from_seq": 4, "to_seq": 5, "segment_length": 2573.8537835296352 }, "geometry": { "type": "LineString", "coordinates": [ [ 299481.438306926982477, 59575.426487462653313 ], [ 299556.141120813146699, 59488.248977992938308 ], [ 301771.454604872444179, 60231.580910911216051 ], [ 301754.356109669141006, 60352.73028125280689 ] ] } },
{ "type": "Feature", "properties": { "trip_id": "624", "route_id": "SB", "direction_id": 1, "shape_id": "136", "from_stop_id": "115", "to_stop_id": "17", "from_seq": 5, "to_seq": 6, "segment_length": 4571.1649897837151 }, "geometry": { "type": "LineString", "coordinates": [ [ 301754.356109669141006, 60352.73028125280689 ], [ 301771.454604872444179, 60231.580910911216051 ], [ 302219.95833346771542, 60374.39860217252135 ], [ 302550.527038938656915, 61612.247965282156656 ], [ 302759.760980375984218, 63992.867826392437564 ], [ 302472.388678921561223, 64101.149630751293444 ] ] } },
{ "type": "Feature", "properties": { "trip_id": "622", "route_id": "SB", "direction_id": 1, "shape_id": "143", "from_stop_id": "24", "to_stop_id": "11", "from_seq": 1, "to_seq": 2, "segment_length": 2101.3575701377413 }, "geometry": { "type": "LineString", "coordinates": [ [ 298870.890357603086159, 57109.788713993184501 ], [ 299044.222730398119893, 57314.203083903557854 ], [ 298792.856665910047013, 57605.517926206288394 ], [ 299549.994704872544389, 58475.936729826447845 ], [ 299825.624702798377257, 58370.984913557695108 ] ] } },
{ "type": "Feature", "properties": { "trip_id": "622", "route_id": "SB", "direction_id": 1, "shape_id": "143", "from_stop_id": "11", "to_stop_id": "87", "from_seq": 2, "to_seq": 3, "segment_length": 1421.9334676845288 }, "geometry": { "type": "LineString", "coordinates": [ [ 299825.624702798377257, 58370.984913557695108 ], [ 299549.994704872544389, 58475.936729826447845 ], [ 299556.056615120032802, 59488.36003102032555 ], [ 299481.607329642400146, 59575.426475625798048 ] ] } },
{ "type": "Feature", "properties": { "trip_id": "622", "route_id": "SB", "direction_id": 1, "shape_id": "143", "from_stop_id": "87", "to_stop_id": "115", "from_seq": 3, "to_seq": 4, "segment_length": 2573.6611526793658 }, "geometry": { "type": "LineString", "coordinates": [ [ 299481.607329642400146, 59575.426475625798048 ], [ 299556.056615120032802, 59488.36003102032555 ], [ 301771.454604872444179, 60231.580910911216051 ], [ 301754.271607185597531, 60352.730261225879076 ] ] } },
{ "type": "Feature", "properties": { "trip_id": "622", "route_id": "SB", "direction_id": 1, "shape_id": "143", "from_stop_id": "115", "to_stop_id": "17", "from_seq": 4, "to_seq": 5, "segment_length": 4560.9868518414032 }, "geometry": { "type": "LineString", "coordinates": [ [ 301754.271607185597531, 60352.730261225879076 ], [ 301771.454604872444179, 60231.580910911216051 ], [ 302313.903992517094593, 60441.056224703068438 ], [ 302849.991404385771602, 62170.485915048004244 ], [ 302708.967626593250316, 63850.484791497365222 ], [ 302440.803904474596493, 64091.58896450924658 ] ] } },
{ "type": "Feature", "properties": { "trip_id": "5438", "route_id": "SG", "direction_id": 0, "shape_id": "138", "from_stop_id": "138", "to_stop_id": "136", "from_seq": 1, "to_seq": 2, "segment_length": 6103.9268395261652 }, "geometry": { "type": "LineString", "coordinates": [ [ 299658.782428561826237, 65923.053811045116163 ], [ 299444.907060558500234, 66034.337723144955817 ], [ 298847.92811409017304, 64918.255292497859045 ], [ 297981.479022745974362, 60935.467066129946033 ], [ 298500.950900135270786, 60893.367427513927396 ] ] } },
{ "type": "Feature", "properties": { "trip_id": "5438", "route_id": "SG", "direction_id": 0, "shape_id": "138", "from_stop_id": "136", "to_stop_id": "137", "from_seq": 2, "to_seq": 3, "segment_length": 9675.6960909500431 }, "geometry": { "type": "LineString", "coordinates": [ [ 298500.950900135270786, 60893.367427513927396 ], [ 297981.479022745974362, 60935.467066129946033 ], [ 297551.226991660019848, 58638.568906043270545 ], [ 296674.479882690589875, 56568.647890431864653 ], [ 294895.629712488618679, 53856.748602606989152 ], [ 294316.173355589562561, 53553.13410972863494 ], [ 293722.111634511384182, 53238.383791689884674 ] ] } },
{ "type": "Feature", "properties": { "trip_id": "5438", "route_id": "SG", "direction_id": 0, "shape_id": "138", "from_stop_id": "137", "to_stop_id": "23", "from_seq": 3, "to_seq": 4, "segment_length": 3815.5385879578789 }, "geometry": { "type": "LineString", "coordinates": [ [ 293722.111634511384182, 53238.383791689884674 ], [ 294316.173355589562561, 53553.13410972863494 ], [ 295304.411302548483945, 52490.830600581793988 ], [ 296446.1643143001711, 52337.92723434540676 ], [ 296632.582320007379167, 52650.4378647333142 ], [ 296775.114172693400178, 52546.312180602646549 ] ] } },
{ "type": "Feature", "properties": { "trip_id": "5438", "route_id": "SG", "direction_id": 0, "shape_id": "138", "from_stop_id": "23", "to_stop_id": "11", "from_seq": 4, "to_seq": 5, "segment_length": 7183.0524994315028 }, "geometry": { "type": "LineString", "coordinates": [ [ 296775.114172693400178, 52546.312180602646549 ], [ 296632.582320007379167, 52650.4378647333142 ], [ 297962.843783352931496, 54776.174733480460418 ], [ 298193.999706378031988, 56833.636307568987831 ], [ 298773.162027589511126, 57616.070696839196899 ], [ 299551.178032875410281, 58475.825610168227286 ], [ 299827.399727471813094, 58370.873824148751737 ] ] } },
{ "type": "Feature", "properties": { "trip_id": "5438", "route_id": "SG", "direction_id": 0, "shape_id": "138", "from_stop_id": "11", "to_stop_id": "87", "from_seq": 5, "to_seq": 6, "segment_length": 1494.022280696953 }, "geometry": { "type": "LineString", "coordinates": [ [ 299827.399727471813094, 58370.873824148751737 ], [ 299551.178032875410281, 58475.825610168227286 ], [ 299558.084904935385566, 59488.248861706219031 ], [ 299436.820415693160612, 59629.399063458462479 ] ] } },
{ "type": "Feature", "properties": { "trip_id": "5437", "route_id": "SG", "direction_id": 0, "shape_id": "150", "from_stop_id": "137", "to_stop_id": "23", "from_seq": 1, "to_seq": 2, "segment_length": 3815.8913390634357 }, "geometry": { "type": "LineString", "coordinates": [ [ 293721.688753644993994, 53238.428568904753774 ], [ 294316.173355589562561, 53553.13410972863494 ], [ 295304.411302548483945, 52490.830600581793988 ], [ 296446.1643143001711, 52337.92723434540676 ], [ 296632.582320007379167, 52650.4378647333142 ], [ 296775.114172693400178, 52546.312180602646549 ] ] } },
{ "type": "Feature", "properties": { "trip_id": "5437", "route_id": "SG", "direction_id": 0, "shape_id": "150", "from_stop_id": "23", "to_stop_id": "11", "from_seq": 2, "to_seq": 3, "segment_length": 7183.0226910245274 }, "geometry": { "type": "LineString", "coordinates": [ [ 296775.114172693400178, 52546.312180602646549 ], [ 296632.582320007379167, 52650.4378647333142 ], [ 297962.843783352931496, 54776.174733480460418 ], [ 298193.407924025377724, 56833.70308048705192 ], [ 298772.519582318665925, 57616.137431941067916 ], [ 299550.535655197512824, 58475.892277834849665 ], [ 299826.757338201452512, 58370.940467842832732 ] ] } },
{ "type": "Feature", "properties": { "trip_id": "5437", "route_id": "SG", "direction_id": 0, "shape_id": "150", "from_stop_id": "11", "to_stop_id": "87", "from_seq": 3, "to_seq": 4, "segment_length": 1493.9118085843925 }, "geometry": { "type": "LineString", "coordinates": [ [ 299826.757338201452512, 58370.940467842832732 ], [ 299550.535655197512824, 58475.892277834849665 ], [ 299557.527120749931782, 59488.204475838443614 ], [ 299436.26264141505817, 59629.354686719707388 ] ] } },
{ "type": "Feature", "properties": { "trip_id": "5460", "route_id": "SG", "direction_id": 1, "shape_id": "139", "from_stop_id": "87", "to_stop_id": "11", "from_seq": 1, "to_seq": 2, "segment_length": 1493.8541506211641 }, "geometry": { "type": "LineString", "coordinates": [ [ 299435.992204502050299, 59629.321392925368855 ], [ 299557.087667806365062, 59488.393283651916136 ], [ 299550.265176661079749, 58475.858979909367918 ], [ 299826.486857074894942, 58370.907159829534066 ] ] } },
{ "type": "Feature", "properties": { "trip_id": "5460", "route_id": "SG", "direction_id": 1, "shape_id": "139", "from_stop_id": "11", "to_stop_id": "23", "from_seq": 2, "to_seq": 3, "segment_length": 7182.9687797595025 }, "geometry": { "type": "LineString", "coordinates": [ [ 299826.486857074894942, 58370.907159829534066 ], [ 299550.265176661079749, 58475.858979909367918 ], [ 298772.24906887463294, 57616.104162470495794 ], [ 298193.112016598170158, 56833.669838389396318 ], [ 297962.970629517163616, 54776.163593859899265 ], [ 296632.70920058072079, 52650.426702358170587 ], [ 296775.241055262391455, 52546.301020669081481 ] ] } },
{ "type": "Feature", "properties": { "trip_id": "5460", "route_id": "SG", "direction_id": 1, "shape_id": "139", "from_stop_id": "23", "to_stop_id": "137", "from_seq": 3, "to_seq": 4, "segment_length": 3815.3891545931292 }, "geometry": { "type": "LineString", "coordinates": [ [ 296775.241055262391455, 52546.301020669081481 ], [ 296632.70920058072079, 52650.426702358170587 ], [ 296446.29119994683424, 52337.916068782324146 ], [ 295304.538183863565791, 52490.81941546764574 ], [ 294316.173355589562561, 53553.13410972863494 ], [ 293722.323197258985601, 53238.505764407091192 ] ] } },
{ "type": "Feature", "properties": { "trip_id": "5460", "route_id": "SG", "direction_id": 1, "shape_id": "139", "from_stop_id": "137", "to_stop_id": "136", "from_seq": 4, "to_seq": 5, "segment_length": 9674.9393454505607 }, "geometry": { "type": "LineString", "coordinates": [ [ 293722.323197258985601, 53238.505764407091192 ], [ 294316.173355589562561, 53553.13410972863494 ], [ 294895.75656979996711, 53856.737410478242964 ], [ 296673.761259347142186, 56568.681527434178861 ], [ 297550.508565230644308, 58638.602458047658729 ], [ 297980.760817263042554, 60935.50057647448557 ], [ 298500.038346712244675, 60893.400926833113772 ] ] } },
{ "type": "Feature", "properties": { "trip_id": "5460", "route_id": "SG", "direction_id": 1, "shape_id": "139", "from_stop_id": "136", "to_stop_id": "138", "from_seq": 5, "to_seq": 6, "segment_length": 6103.6368200194574 }, "geometry": { "type": "LineString", "coordinates": [ [ 298500.038346712244675, 60893.400926833113772 ], [ 297980.760817263042554, 60935.50057647448557 ], [ 298847.26942374027567, 64918.399758418934653 ], [ 299443.995136726822238, 66034.371106297796359 ], [ 299657.870490046392661, 65923.087167823483469 ] ] } },
{ "type": "Feature", "properties": { "trip_id": "5459", "route_id": "SG", "direction_id": 1, "shape_id": "16", "from_stop_id": "137", "to_stop_id": "136", "from_seq": 1, "to_seq": 2, "segment_length": 9675.4525000930389 }, "geometry": { "type": "LineString", "coordinates": [ [ 293721.435021364013664, 53238.450993361948349 ], [ 294316.173355589562561, 53553.13410972863494 ], [ 294895.629712488618679, 53856.748602606989152 ], [ 296673.296283034142107, 56568.737260085952585 ], [ 297550.043712314567529, 58638.65813578365487 ], [ 297980.296105341345537, 60935.556227346001833 ], [ 298499.531380095810164, 60893.456553662690567 ] ] } },
{ "type": "Feature", "properties": { "trip_id": "5459", "route_id": "SG", "direction_id": 1, "shape_id": "16", "from_stop_id": "136", "to_stop_id": "138", "from_seq": 2, "to_seq": 3, "segment_length": 6103.5857311139562 }, "geometry": { "type": "LineString", "coordinates": [ [ 298499.531380095810164, 60893.456553662690567 ], [ 297980.296105341345537, 60935.556227346001833 ], [ 298846.762730217364151, 64918.455361746164272 ], [ 299443.488515164528508, 66034.426668830492417 ], [ 299657.363859256089199, 65923.14271570101846 ] ] } }
]
}
