{
"type": "FeatureCollection",
"name": "landings_processed",
"crs": { "type": "name", "properties": { "name": "urn:ogc:def:crs:OGC:1.3:CRS84" } },
"features": [
{ "type": "Feature", "properties": { "Id": 0, "stop_id": "4", "stop_code": "2319806", "stop_name": "Hunters Point South", "stop_lat": 40.741838, "stop_lon": -73.961322, "route_info": { "route_id": [ "ER" ], "route_type": [ "4" ] }, "primary_route_id": "ER", "route_color": "#228B9D", "route_count": 1, "delay_prob": 0.0 }, "geometry": { "type": "Point", "coordinates": [ -73.961322, 40.741838 ] } },
{ "type": "Feature", "properties": { "Id": 0, "stop_id": "8", "stop_code": "2319809", "stop_name": "South Williamsburg", "stop_lat": 40.708743, "stop_lon": -73.970224, "route_info": { "route_id": [ "ER" ], "route_type": [ "4" ] }, "primary_route_id": "ER", "route_color": "#228B9D", "route_count": 1, "delay_prob": 0.0 }, "geometry": { "type": "Point", "coordinates": [ -73.970224, 40.708743 ] } },
{ "type": "Feature", "properties": { "Id": 0, "stop_id": "11", "stop_code": "2319817", "stop_name": "Atlantic Ave/BBP Pier 6", "stop_lat": 40.692315, "stop_lon": -74.002073, "route_info": { "route_id": [ "SB", "SG" ], "route_type": [ "4" ] }, "primary_route_id": "SB", "route_color": "#FFD100", "route_count": 2, "delay_prob": 0.0 }, "geometry": { "type": "Point", "coordinates": [ -74.002073, 40.692315 ] } },
{ "type": "Feature", "properties": { "Id": 0, "stop_id": "17", "stop_code": "2319805", "stop_name": "East 34th Street", "stop_lat": 40.743912, "stop_lon": -73.970731, "route_info": { "route_id": [ "AS", "ER", "RS", "SB" ], "route_type": [ "4" ] }, "primary_route_id": "AS", "route_color": "#FE5000", "route_count": 4, "delay_prob": 0.0 }, "geometry": { "type": "Point", "coordinates": [ -73.970731, 40.743912 ] } },
{ "type": "Feature", "properties": { "Id": 0, "stop_id": "18", "stop_code": "2319807", "stop_name": "Greenpoint", "stop_lat": 40.731365, "stop_lon": -73.963617, "route_info": { "route_id": [ "ER" ], "route_type": [ "4" ] }, "primary_route_id": "ER", "route_color": "#228B9D", "route_count": 1, "delay_prob": 0.0 }, "geometry": { "type": "Point", "coordinates": [ -73.963617, 40.731365 ] } },
{ "type": "Feature", "properties": { "Id": 0, "stop_id": "19", "stop_code": "2319808", "stop_name": "North Williamsburg", "stop_lat": 40.720838, "stop_lon": -73.964902, "route_info": { "route_id": [ "ER" ], "route_type": [ "4" ] }, "primary_route_id": "ER", "route_color": "#228B9D", "route_count": 1, "delay_prob": 0.0 }, "geometry": { "type": "Point", "coordinates": [ -73.964902, 40.720838 ] } },
{ "type": "Feature", "properties": { "Id": 0, "stop_id": "20", "stop_code": "2319810", "stop_name": "Dumbo/Fulton Ferry", "stop_lat": 40.703652, "stop_lon": -73.995671, "route_info": { "route_id": [ "ER" ], "route_type": [ "4" ] }, "primary_route_id": "ER", "route_color": "#228B9D", "route_count": 1, "delay_prob": 0.0 }, "geometry": { "type": "Point", "coordinates": [ -73.995671, 40.703652 ] } },
{ "type": "Feature", "properties": { "Id": 0, "stop_id": "23", "stop_code": "2319815", "stop_name": "Bay Ridge", "stop_lat": 40.639858, "stop_lon": -74.03813, "route_info": { "route_id": [ "SG" ], "route_type": [ "4" ] }, "primary_route_id": "SG", "route_color": "#D0006F", "route_count": 1, "delay_prob": 0.0 }, "geometry": { "type": "Point", "coordinates": [ -74.03813, 40.639858 ] } },
{ "type": "Feature", "properties": { "Id": 0, "stop_id": "24", "stop_code": "2319816", "stop_name": "Red Hook/Atlantic Basin", "stop_lat": 40.680957, "stop_lon": -74.013358, "route_info": { "route_id": [ "SB" ], "route_type": [ "4" ] }, "primary_route_id": "SB", "route_color": "#FFD100", "route_count": 1, "delay_prob": 0.0 }, "geometry": { "type": "Point", "coordinates": [ -74.013358, 40.680957 ] } },
{ "type": "Feature", "properties": { "Id": 0, "stop_id": "25", "stop_code": "2319819", "stop_name": "Roosevelt Island", "stop_lat": 40.756811, "stop_lon": -73.952482, "route_info": { "route_id": [ "AS" ], "route_type": [ "4" ] }, "primary_route_id": "AS", "route_color": "#FE5000", "route_count": 1, "delay_prob": 0.0 }, "geometry": { "type": "Point", "coordinates": [ -73.952482, 40.756811 ] } },
{ "type": "Feature", "properties": { "Id": 0, "stop_id": "87", "stop_code": "2319811", "stop_name": "Wall St/Pier 11", "stop_lat": 40.703161, "stop_lon": -74.006144, "route_info": { "route_id": [ "AS", "ER", "RS", "SB", "SG" ], "route_type": [ "4" ] }, "primary_route_id": "AS", "route_color": "#FE5000", "route_count": 5, "delay_prob": 0.0 }, "geometry": { "type": "Point", "coordinates": [ -74.006144, 40.703161 ] } },
{ "type": "Feature", "properties": { "Id": 0, "stop_id": "88", "stop_code": "2319813", "stop_name": "Rockaway", "stop_lat": 40.584228, "stop_lon": -73.831596, "route_info": { "route_id": [ "RS" ], "route_type": [ "4" ] }, "primary_route_id": "RS", "route_color": "#AD1AAC", "route_count": 1, "delay_prob": 0.0 }, "geometry": { "type": "Point", "coordinates": [ -73.831596, 40.584228 ] } },
{ "type": "Feature", "properties": { "Id": 0, "stop_id": "89", "stop_code": "2319818", "stop_name": "Astoria", "stop_lat": 40.77172, "stop_lon": -73.935714, "route_info": { "route_id": [ "AS" ], "route_type": [ "4" ] }, "primary_route_id": "AS", "route_color": "#FE5000", "route_count": 1, "delay_prob": 0.0 }, "geometry": { "type": "Point", "coordinates": [ -73.935714, 40.77172 ] } },
{ "type": "Feature", "properties": { "Id": 0, "stop_id": "90", "stop_code": "2319820", "stop_name": "Long Island City", "stop_lat": 40.74842, "stop_lon": -73.957725, "route_info": { "route_id": [ "AS" ], "route_type": [ "4" ] }, "primary_route_id": "AS", "route_color": "#FE5000", "route_count": 1, "delay_prob": 0.0 }, "geometry": { "type": "Point", "coordinates": [ -73.957725, 40.74842 ] } },
{ "type": "Feature", "properties": { "Id": 0, "stop_id": "111", "stop_code": "2319870", "stop_name": "Gov. Island/Yankee Pier", "stop_lat": 40.68664, "stop_lon": -74.016482, "route_info": { "route_id": [ "SB" ], "route_type": [ "4" ] }, "primary_route_id": "SB", "route_color": "#FFD100", "route_count": 1, "delay_prob": 0.0 }, "geometry": { "type": "Point", "coordinates": [ -74.016482, 40.68664 ] } },
{ "type": "Feature", "properties": { "Id": 0, "stop_id": "112", "stop_code": "2319871", "stop_name": "Soundview", "stop_lat": 40.804202, "stop_lon": -73.848703, "route_info": { "route_id": [ "RS" ], "route_type": [ "4" ] }, "primary_route_id": "RS", "route_color": "#AD1AAC", "route_count": 1, "delay_prob": 0.0 }, "geometry": { "type": "Point", "coordinates": [ -73.848703, 40.804202 ] } },
{ "type": "Feature", "properties": { "Id": 0, "stop_id": "113", "stop_code": "2319872", "stop_name": "East 90th St", "stop_lat": 40.777475, "stop_lon": -73.942172, "route_info": { "route_id": [ "AS", "RS" ], "route_type": [ "4" ] }, "primary_route_id": "AS", "route_color": "#FE5000", "route_count": 2, "delay_prob": 0.0 }, "geometry": { "type": "Point", "coordinates": [ -73.942172, 40.777475 ] } },
{ "type": "Feature", "properties": { "Id": 0, "stop_id": "114", "stop_code": "2319873", "stop_name": "Stuyvesant Cove", "stop_lat": 40.731979, "stop_lon": -73.972922, "route_info": { "route_id": [ "RS" ], "route_type": [ "4" ] }, "primary_route_id": "RS", "route_color": "#AD1AAC", "route_count": 1, "delay_prob": 0.0 }, "geometry": { "type": "Point", "coordinates": [ -73.972922, 40.731979 ] } },
{ "type": "Feature", "properties": { "Id": 0, "stop_id": "115", "stop_code": "2319874", "stop_name": "Corlears Hook", "stop_lat": 40.710159, "stop_lon": -73.979244, "route_info": { "route_id": [ "SB" ], "route_type": [ "4" ] }, "primary_route_id": "SB", "route_color": "#FFD100", "route_count": 1, "delay_prob": 0.0 }, "geometry": { "type": "Point", "coordinates": [ -73.979244, 40.710159 ] } },
{ "type": "Feature", "properties": { "Id": 0, "stop_id": "118", "stop_code": "2319814", "stop_name": "Sunset Park/BAT", "stop_lat": 40.646276, "stop_lon": -74.026436, "route_info": { "route_id": [ "RS" ], "route_type": [ "4" ] }, "primary_route_id": "RS", "route_color": "#AD1AAC", "route_count": 1, "delay_prob": 0.0 }, "geometry": { "type": "Point", "coordinates": [ -74.026436, 40.646276 ] } },
{ "type": "Feature", "properties": { "Id": 0, "stop_id": "120", "stop_code": "2319875", "stop_name": "Brooklyn Navy Yard", "stop_lat": 40.701792, "stop_lon": -73.973576, "route_info": { "route_id": [ "AS" ], "route_type": [ "4" ] }, "primary_route_id": "AS", "route_color": "#FE5000", "route_count": 1, "delay_prob": 0.0 }, "geometry": { "type": "Point", "coordinates": [ -73.973576, 40.701792 ] } },
{ "type": "Feature", "properties": { "Id": 0, "stop_id": "136", "stop_code": "2319890", "stop_name": "Battery Park City/Vesey St.", "stop_lat": 40.715029, "stop_lon": -74.017775, "route_info": { "route_id": [ "SG" ], "route_type": [ "4" ] }, "primary_route_id": "SG", "route_color": "#D0006F", "route_count": 1, "delay_prob": 0.0 }, "geometry": { "type": "Point", "coordinates": [ -74.017775, 40.715029 ] } },
{ "type": "Feature", "properties": { "Id": 0, "stop_id": "137", "stop_code": "2319891", "stop_name": "St. George", "stop_lat": 40.646072, "stop_lon": -74.074231, "route_info": { "route_id": [ "SG" ], "route_type": [ "4" ] }, "primary_route_id": "SG", "route_color": "#D0006F", "route_count": 1, "delay_prob": 0.0 }, "geometry": { "type": "Point", "coordinates": [ -74.074231, 40.646072 ] } },
{ "type": "Feature", "properties": { "Id": 0, "stop_id": "138", "stop_code": "2319892", "stop_name": "Midtown West/W 39th St-Pier 79", "stop_lat": 40.760323, "stop_lon": -74.004075, "route_info": { "route_id": [ "SG" ], "route_type": [ "4" ] }, "primary_route_id": "SG", "route_color": "#D0006F", "route_count": 1, "delay_prob": 0.0 }, "geometry": { "type": "Point", "coordinates": [ -74.004075, 40.760323 ] } },
{ "type": "Feature", "properties": { "Id": 0, "stop_id": "141", "stop_code": "2319894", "stop_name": "Ferry Point Park", "stop_lat": 40.805455, "stop_lon": -73.837305, "route_info": { "route_id": [ "RS" ], "route_type": [ "4" ] }, "primary_route_id": "RS", "route_color": "#AD1AAC", "route_count": 1, "delay_prob": 0.0 }, "geometry": { "type": "Point", "coordinates": [ -73.837305, 40.805455 ] } }
]
}
