{
"type": "FeatureCollection",
"name": "routes",
"crs": { "type": "name", "properties": { "name": "urn:ogc:def:crs:OGC:1.3:CRS84" } },
"features": [
{ "type": "Feature", "properties": { "Id": 0, "shape_id": "107", "route_id": "AS", "agency_id": "1", "short_name": "AS", "long_name": "Astoria", "route_type": "4", "color": "FF6B00", "text_color": "FFFFFF", "rt_tp_txt": "Ferry" }, "geometry": { "type": "LineString", "coordinates": [ [ -74.006689, 40.703647 ], [ -74.005257, 40.702377 ], [ -73.990776, 40.707436 ], [ -73.976528, 40.707101 ], [ -73.973574, 40.701792 ], [ -73.976528, 40.707101 ], [ -73.973779, 40.710158 ], [ -73.969808, 40.721485 ], [ -73.967326, 40.742936 ], [ -73.970729, 40.743912 ], [ -73.967326, 40.742936 ], [ -73.959144, 40.749586 ], [ -73.957723, 40.74842 ], [ -73.959144, 40.749586 ], [ -73.951271, 40.756374 ], [ -73.95248, 40.756811 ], [ -73.951271, 40.756374 ], [ -73.938487, 40.770867 ], [ -73.935712, 40.77172 ], [ -73.938487, 40.770867 ], [ -73.939703, 40.777845 ], [ -73.94217, 40.777475 ] ] } },
{ "type": "Feature", "properties": { "Id": 0, "shape_id": "108", "route_id": "AS", "agency_id": "1", "short_name": "AS", "long_name": "Astoria", "route_type": "4", "color": "FF6B00", "text_color": "FFFFFF", "rt_tp_txt": "Ferry" }, "geometry": { "type": "LineString", "coordinates": [ [ -73.94217, 40.777475 ], [ -73.939701, 40.777845 ], [ -73.938483, 40.770867 ], [ -73.935712, 40.77172 ], [ -73.938483, 40.770867 ], [ -73.951269, 40.756374 ], [ -73.95248, 40.756811 ], [ -73.951269, 40.756374 ], [ -73.959142, 40.749586 ], [ -73.957723, 40.74842 ], [ -73.959142, 40.749586 ], [ -73.967322, 40.742936 ], [ -73.970729, 40.743912 ], [ -73.967322, 40.742936 ], [ -73.969806, 40.721492 ], [ -73.973774, 40.710159 ], [ -73.976524, 40.707101 ], [ -73.973574, 40.701792 ], [ -73.976524, 40.707101 ], [ -73.990772, 40.707436 ], [ -74.005257, 40.702377 ], [ -74.006687, 40.703647 ] ] } },
{ "type": "Feature", "properties": { "Id": 0, "shape_id": "12", "route_id": "ER", "agency_id": "1", "short_name": "ER", "long_name": "East River", "route_type": "4", "color": "00839C", "text_color": "FFFFFF", "rt_tp_txt": "Ferry" }, "geometry": { "type": "LineString", "coordinates": [ [ -73.970731, 40.743912 ], [ -73.967329, 40.742936 ], [ -73.964519, 40.742134 ], [ -73.961322, 40.741838 ], [ -73.964519, 40.742134 ], [ -73.964842, 40.731406 ], [ -73.963617, 40.731365 ], [ -73.964842, 40.731406 ], [ -73.967308, 40.722012 ], [ -73.964902, 40.720838 ], [ -73.967308, 40.722012 ], [ -73.972587, 40.710119 ], [ -73.970224, 40.708743 ], [ -73.972587, 40.710119 ], [ -73.996646, 40.704159 ], [ -73.995671, 40.703652 ], [ -73.996646, 40.704159 ], [ -74.005259, 40.702377 ], [ -74.006693, 40.703647 ] ] } },
{ "type": "Feature", "properties": { "Id": 0, "shape_id": "125", "route_id": "SB", "agency_id": "1", "short_name": "SB", "long_name": "South Brooklyn", "route_type": "4", "color": "FFD100", "text_color": "FFFFFF", "rt_tp_txt": "Ferry" }, "geometry": { "type": "LineString", "coordinates": [ [ -74.013354, 40.680957 ], [ -74.011303, 40.682798 ], [ -74.014537, 40.685517 ], [ -74.005328, 40.69326 ], [ -74.005257, 40.702377 ], [ -74.006685, 40.703647 ] ] } },
{ "type": "Feature", "properties": { "Id": 0, "shape_id": "126", "route_id": "SB", "agency_id": "1", "short_name": "SB", "long_name": "South Brooklyn", "route_type": "4", "color": "FFD100", "text_color": "FFFFFF", "rt_tp_txt": "Ferry" }, "geometry": { "type": "LineString", "coordinates": [ [ -74.006688, 40.703646 ], [ -74.005257, 40.702377 ], [ -74.00533, 40.69326 ], [ -74.014545, 40.685517 ], [ -74.011305, 40.682798 ], [ -74.013354, 40.680957 ] ] } },
{ "type": "Feature", "properties": { "Id": 0, "shape_id": "132", "route_id": "RES", "agency_id": "1", "short_name": "RES", "long_name": "Rockaway East", "route_type": "3", "color": "00A1E1", "text_color": "FFFFFF", "rt_tp_txt": "Bus" }, "geometry": { "type": "LineString", "coordinates": [ [ -73.831326, 40.583885 ], [ -73.833411, 40.583354 ], [ -73.834671, 40.582966 ], [ -73.834274, 40.582432 ], [ -73.834058, 40.582159 ], [ -73.833853, 40.582023 ], [ -73.833603, 40.581907 ], [ -73.833275, 40.581851 ], [ -73.833074, 40.581837 ], [ -73.832876, 40.581866 ], [ -73.831264, 40.582252 ], [ -73.830257, 40.582538 ], [ -73.829867, 40.581884 ], [ -73.829617, 40.581919 ], [ -73.829523, 40.581947 ], [ -73.827621, 40.582514 ], [ -73.826035, 40.582969 ], [ -73.825124, 40.58324 ], [ -73.824097, 40.583547 ], [ -73.82367, 40.583662 ], [ -73.822994, 40.583853 ], [ -73.822914, 40.583828 ], [ -73.82251, 40.583184 ], [ -73.821708, 40.58357 ], [ -73.821221, 40.583803 ], [ -73.821103, 40.583857 ], [ -73.820333, 40.584221 ], [ -73.819568, 40.584587 ], [ -73.818798, 40.584948 ], [ -73.818039, 40.585307 ], [ -73.817585, 40.585525 ], [ -73.817294, 40.585674 ], [ -73.817164, 40.585734 ], [ -73.816709, 40.585949 ], [ -73.816575, 40.586015 ], [ -73.815896, 40.586289 ], [ -73.815441, 40.586472 ], [ -73.815205, 40.586568 ], [ -73.814641, 40.586788 ], [ -73.813803, 40.587119 ], [ -73.81305, 40.587368 ], [ -73.812479, 40.587428 ], [ -73.812165, 40.587461 ], [ -73.811277, 40.587553 ], [ -73.811016, 40.58759 ], [ -73.810636, 40.587646 ], [ -73.809859, 40.587758 ], [ -73.808753, 40.587862 ], [ -73.807277, 40.588001 ], [ -73.806341, 40.588088 ], [ -73.805138, 40.588215 ], [ -73.804322, 40.588328 ], [ -73.803549, 40.588489 ], [ -73.80279, 40.588665 ], [ -73.802017, 40.58888 ], [ -73.801575, 40.588988 ], [ -73.80117, 40.589076 ], [ -73.80107, 40.589096 ], [ -73.800935, 40.589077 ], [ -73.800148, 40.589324 ], [ -73.799304, 40.589611 ], [ -73.798421, 40.589902 ], [ -73.79786, 40.590106 ], [ -73.796865, 40.590427 ], [ -73.795934, 40.590696 ], [ -73.79583, 40.590722 ], [ -73.793972, 40.591197 ], [ -73.793113, 40.591411 ], [ -73.792256, 40.591638 ], [ -73.791468, 40.591826 ], [ -73.791375, 40.591851 ], [ -73.791458, 40.59313 ], [ -73.791208, 40.59319 ], [ -73.791008, 40.59327 ], [ -73.789118, 40.59404 ], [ -73.788068, 40.59447 ], [ -73.787218, 40.59481 ], [ -73.787068, 40.59485 ], [ -73.786928, 40.59488 ], [ -73.786248, 40.59494 ], [ -73.785718, 40.59498 ], [ -73.785498, 40.595 ], [ -73.784538, 40.59507 ], [ -73.784118, 40.5951 ], [ -73.783598, 40.59514 ], [ -73.782688, 40.5952 ], [ -73.781828, 40.59526 ], [ -73.780908, 40.59532 ], [ -73.780451, 40.595347 ], [ -73.779928, 40.59538 ], [ -73.779018, 40.59545 ], [ -73.778208, 40.5955 ], [ -73.777378, 40.59555 ], [ -73.776538, 40.59561 ], [ -73.775708, 40.59567 ], [ -73.774758, 40.59573 ], [ -73.774578, 40.59573 ], [ -73.773858, 40.59576 ], [ -73.772808, 40.59577 ], [ -73.772298, 40.59579 ], [ -73.771488, 40.59591 ], [ -73.770638, 40.596 ], [ -73.770908, 40.59736 ], [ -73.769988, 40.59747 ], [ -73.768988, 40.59757 ], [ -73.768718, 40.59621 ], [ -73.768739, 40.596223 ], [ -73.769102, 40.596183 ], [ -73.769132, 40.596179 ] ] } },
{ "type": "Feature", "properties": { "Id": 0, "shape_id": "136", "route_id": "SB", "agency_id": "1", "short_name": "SB", "long_name": "South Brooklyn", "route_type": "4", "color": "FFD100", "text_color": "FFFFFF", "rt_tp_txt": "Ferry" }, "geometry": { "type": "LineString", "coordinates": [ [ -74.016533, 40.686688 ], [ -74.01115, 40.682691 ], [ -74.013346, 40.680945 ], [ -74.011153, 40.682709 ], [ -74.014581, 40.685226 ], [ -74.005328, 40.69326 ], [ -74.002067, 40.692315 ], [ -74.005328, 40.69326 ], [ -74.005254, 40.702376 ], [ -74.006138, 40.703161 ], [ -74.005254, 40.702376 ], [ -73.979039, 40.709068 ], [ -73.979241, 40.710159 ], [ -73.979039, 40.709068 ], [ -73.973731, 40.710353 ], [ -73.969814, 40.721499 ], [ -73.967327, 40.742936 ], [ -73.970729, 40.743912 ] ] } },
{ "type": "Feature", "properties": { "Id": 0, "shape_id": "137", "route_id": "SB", "agency_id": "1", "short_name": "SB", "long_name": "South Brooklyn", "route_type": "4", "color": "FFD100", "text_color": "FFFFFF", "rt_tp_txt": "Ferry" }, "geometry": { "type": "LineString", "coordinates": [ [ -73.970729, 40.743912 ], [ -73.967327, 40.742936 ], [ -73.969814, 40.721499 ], [ -73.973731, 40.710353 ], [ -73.979039, 40.709068 ], [ -73.979241, 40.710159 ], [ -73.979039, 40.709068 ], [ -74.005255, 40.702377 ], [ -74.006138, 40.703161 ], [ -74.005255, 40.702377 ], [ -74.005328, 40.69326 ], [ -74.002067, 40.692315 ], [ -74.005328, 40.69326 ], [ -74.01472, 40.685378 ], [ -74.011314, 40.682703 ], [ -74.013374, 40.680927 ], [ -74.011312, 40.682726 ], [ -74.016425, 40.686704 ] ] } },
{ "type": "Feature", "properties": { "Id": 0, "shape_id": "138", "route_id": "SG", "agency_id": "1", "short_name": "SG", "long_name": "St. George", "route_type": "4", "color": "D0006F", "text_color": "FFFFFF", "rt_tp_txt": "Ferry" }, "geometry": { "type": "LineString", "coordinates": [ [ -74.004041, 40.760322 ], [ -74.006574, 40.761324 ], [ -74.013642, 40.751273 ], [ -74.023889, 40.715406 ], [ -74.017741, 40.715028 ], [ -74.023889, 40.715406 ], [ -74.028972, 40.694721 ], [ -74.039334, 40.676078 ], [ -74.060352, 40.6516478 ], [ -74.0672005, 40.6489099 ], [ -74.074221, 40.6460712 ], [ -74.0672005, 40.6489099 ], [ -74.0555085, 40.6393499 ], [ -74.0420105, 40.6379787 ], [ -74.0398085, 40.6407937 ], [ -74.038123, 40.6398566 ], [ -74.0398085, 40.6407937 ], [ -74.0240895, 40.6599407 ], [ -74.021362, 40.678469 ], [ -74.014513, 40.685516 ], [ -74.00531, 40.693259 ], [ -74.002042, 40.692314 ], [ -74.00531, 40.693259 ], [ -74.005229, 40.702376 ], [ -74.006664, 40.703647 ] ] } },
{ "type": "Feature", "properties": { "Id": 0, "shape_id": "139", "route_id": "SG", "agency_id": "1", "short_name": "SG", "long_name": "St. George", "route_type": "4", "color": "D0006F", "text_color": "FFFFFF", "rt_tp_txt": "Ferry" }, "geometry": { "type": "LineString", "coordinates": [ [ -74.0066738, 40.7036463 ], [ -74.0052408, 40.7023773 ], [ -74.0053208, 40.6932593 ], [ -74.0020528, 40.6923143 ], [ -74.0053208, 40.6932593 ], [ -74.0145238, 40.6855163 ], [ -74.0213725, 40.6784693 ], [ -74.024088, 40.6599406 ], [ -74.039807, 40.6407936 ], [ -74.0381215, 40.6398565 ], [ -74.039807, 40.6407936 ], [ -74.042009, 40.6379786 ], [ -74.055507, 40.6393498 ], [ -74.0672005, 40.6489099 ], [ -74.0742185, 40.6460723 ], [ -74.0672005, 40.6489099 ], [ -74.0603505, 40.6516477 ], [ -74.0393425, 40.6760783 ], [ -74.0289805, 40.6947213 ], [ -74.0238975, 40.7154063 ], [ -74.0177518, 40.7150283 ], [ -74.0238975, 40.7154063 ], [ -74.0136498, 40.7512743 ], [ -74.0065848, 40.7613243 ], [ -74.0040518, 40.7603223 ] ] } },
{ "type": "Feature", "properties": { "Id": 0, "shape_id": "141", "route_id": "ER", "agency_id": "1", "short_name": "ER", "long_name": "East River", "route_type": "4", "color": "00839C", "text_color": "FFFFFF", "rt_tp_txt": "Ferry" }, "geometry": { "type": "LineString", "coordinates": [ [ -73.9613194, 40.7418379 ], [ -73.9645174, 40.7421339 ], [ -73.9673274, 40.7429359 ], [ -73.9707294, 40.7439119 ] ] } },
{ "type": "Feature", "properties": { "Id": 0, "shape_id": "142", "route_id": "SB", "agency_id": "1", "short_name": "SB", "long_name": "South Brooklyn", "route_type": "4", "color": "FFD100", "text_color": "FFFFFF", "rt_tp_txt": "Ferry" }, "geometry": { "type": "LineString", "coordinates": [ [ -73.970729, 40.743912 ], [ -73.967327, 40.742936 ], [ -73.969814, 40.721498 ], [ -73.973731, 40.710353 ], [ -73.979039, 40.709068 ], [ -73.979241, 40.710159 ], [ -73.979039, 40.709068 ], [ -74.005255, 40.702377 ], [ -74.006136, 40.703161 ], [ -74.005255, 40.702377 ], [ -74.005326, 40.69326 ], [ -74.002065, 40.692315 ], [ -74.005326, 40.69326 ], [ -74.013824, 40.685205 ], [ -74.011409, 40.682825 ], [ -74.013353, 40.680944 ] ] } },
{ "type": "Feature", "properties": { "Id": 0, "shape_id": "143", "route_id": "SB", "agency_id": "1", "short_name": "SB", "long_name": "South Brooklyn", "route_type": "4", "color": "FFD100", "text_color": "FFFFFF", "rt_tp_txt": "Ferry" }, "geometry": { "type": "LineString", "coordinates": [ [ -74.013358, 40.680954 ], [ -74.011112, 40.682767 ], [ -74.014282, 40.685421 ], [ -74.005326, 40.69326 ], [ -74.002065, 40.692315 ], [ -74.005326, 40.69326 ], [ -74.005255, 40.702377 ], [ -74.006136, 40.703161 ], [ -74.005255, 40.702377 ], [ -73.979039, 40.709068 ], [ -73.979242, 40.710159 ], [ -73.979039, 40.709068 ], [ -73.972619, 40.710953 ], [ -73.966267, 40.726525 ], [ -73.967929, 40.741654 ], [ -73.971103, 40.743826 ] ] } },
{ "type": "Feature", "properties": { "Id": 0, "shape_id": "144", "route_id": "RS", "agency_id": "1", "short_name": "RS", "long_name": "Rockaway-Soundview", "route_type": "4", "color": "4E008E", "text_color": "FFFFFF", "rt_tp_txt": "Ferry" }, "geometry": { "type": "LineString", "coordinates": [ [ -73.8372911, 40.8054549 ], [ -73.8377811, 40.8041479 ], [ -73.8479152, 40.8027329 ], [ -73.8486892, 40.8042019 ], [ -73.8479152, 40.8027329 ], [ -73.8725812, 40.7976659 ], [ -73.8839622, 40.7995369 ], [ -73.8906932, 40.8004039 ], [ -73.9005282, 40.7975779 ], [ -73.9111903, 40.7927809 ], [ -73.9267263, 40.7797679 ], [ -73.9396953, 40.7778449 ], [ -73.9421583, 40.7774749 ], [ -73.9396953, 40.7778449 ], [ -73.9562633, 40.7580669 ], [ -73.9685054, 40.7432779 ], [ -73.9707174, 40.7439119 ], [ -73.9685054, 40.7432779 ], [ -73.9700764, 40.7318049 ], [ -73.9729084, 40.7319789 ], [ -73.9700764, 40.7318049 ], [ -73.9697994, 40.7214929 ], [ -73.9729204, 40.7123569 ], [ -73.9754444, 40.7101419 ], [ -73.9806734, 40.7080999 ], [ -73.9908364, 40.7073889 ], [ -74.0052534, 40.7023769 ], [ -74.0061374, 40.7031599 ], [ -74.0052534, 40.7023769 ], [ -74.0041794, 40.7002299 ], [ -74.0103544, 40.6901529 ], [ -74.0214675, 40.6783339 ], [ -74.0240925, 40.6599409 ], [ -74.0329195, 40.6490319 ], [ -74.0264295, 40.6462759 ], [ -74.0329195, 40.6490319 ], [ -74.0398115, 40.6407939 ], [ -74.0420145, 40.6379769 ], [ -74.0443845, 40.6276169 ], [ -74.0444565, 40.6235679 ], [ -74.0445355, 40.6216879 ], [ -74.0419225, 40.6121729 ], [ -74.0389215, 40.6051629 ], [ -74.0142804, 40.5709759 ], [ -74.0045534, 40.5655639 ], [ -73.9304373, 40.5647309 ], [ -73.8675432, 40.5779429 ], [ -73.8538942, 40.5838039 ], [ -73.8319091, 40.5850129 ], [ -73.8315891, 40.5842279 ] ] } },
{ "type": "Feature", "properties": { "Id": 0, "shape_id": "145", "route_id": "RS", "agency_id": "1", "short_name": "RS", "long_name": "Rockaway-Soundview", "route_type": "4", "color": "4E008E", "text_color": "FFFFFF", "rt_tp_txt": "Ferry" }, "geometry": { "type": "LineString", "coordinates": [ [ -73.8315911, 40.5842279 ], [ -73.8319111, 40.5850129 ], [ -73.8538962, 40.5838039 ], [ -73.8675452, 40.5779429 ], [ -73.9304413, 40.5647309 ], [ -74.0045554, 40.5655639 ], [ -74.0142824, 40.5709759 ], [ -74.0389215, 40.6051599 ], [ -74.0419245, 40.6121729 ], [ -74.0445375, 40.6216879 ], [ -74.0443855, 40.6276149 ], [ -74.0420145, 40.6379759 ], [ -74.0398115, 40.6407939 ], [ -74.0329215, 40.6490319 ], [ -74.0264315, 40.6462759 ], [ -74.0329215, 40.6490319 ], [ -74.0240925, 40.6599409 ], [ -74.0214695, 40.6783339 ], [ -74.0103544, 40.6901529 ], [ -74.0041794, 40.7002299 ], [ -74.0052554, 40.7023769 ], [ -74.0061384, 40.7031599 ], [ -74.0052554, 40.7023769 ], [ -73.9907664, 40.7074029 ], [ -73.9806734, 40.7080999 ], [ -73.9753854, 40.7101729 ], [ -73.9729584, 40.7123709 ], [ -73.9697964, 40.7214949 ], [ -73.9700744, 40.7318049 ], [ -73.9729064, 40.7319789 ], [ -73.9700744, 40.7318049 ], [ -73.9685054, 40.7432779 ], [ -73.9707154, 40.7439119 ], [ -73.9685054, 40.7432779 ], [ -73.9562633, 40.7580669 ], [ -73.9396933, 40.7778449 ], [ -73.9421563, 40.7774749 ], [ -73.9396933, 40.7778449 ], [ -73.9267213, 40.7797679 ], [ -73.9110403, 40.7928269 ], [ -73.9005282, 40.7975779 ], [ -73.8906622, 40.8003819 ], [ -73.8840362, 40.7995669 ], [ -73.8725532, 40.7976839 ], [ -73.8479132, 40.8027329 ], [ -73.8486872, 40.8042019 ], [ -73.8479132, 40.8027329 ], [ -73.8377791, 40.8041479 ], [ -73.8372891, 40.8054549 ] ] } },
{ "type": "Feature", "properties": { "Id": 0, "shape_id": "147", "route_id": "RS", "agency_id": "1", "short_name": "RS", "long_name": "Rockaway-Soundview", "route_type": "4", "color": "4E008E", "text_color": "FFFFFF", "rt_tp_txt": "Ferry" }, "geometry": { "type": "LineString", "coordinates": [ [ -73.8315901, 40.5842279 ], [ -73.8319091, 40.5850129 ], [ -73.8538962, 40.5838039 ], [ -73.8675452, 40.5779429 ], [ -73.9304373, 40.5647309 ], [ -74.0045554, 40.5655639 ], [ -74.0142824, 40.5709759 ], [ -74.0389235, 40.6051629 ], [ -74.0419245, 40.6121729 ], [ -74.0445375, 40.6216879 ], [ -74.0443865, 40.6276149 ], [ -74.0420145, 40.6379759 ], [ -74.0398115, 40.6407939 ], [ -74.0329215, 40.6490319 ], [ -74.0264325, 40.6462759 ], [ -74.0329215, 40.6490319 ], [ -74.0240925, 40.6599409 ], [ -74.0214695, 40.6783339 ], [ -74.0103544, 40.6901529 ], [ -74.0041794, 40.7002299 ], [ -74.0052554, 40.7023769 ], [ -74.0066874, 40.7036469 ] ] } },
{ "type": "Feature", "properties": { "Id": 0, "shape_id": "149", "route_id": "RS", "agency_id": "1", "short_name": "RS", "long_name": "Rockaway-Soundview", "route_type": "4", "color": "4E008E", "text_color": "FFFFFF", "rt_tp_txt": "Ferry" }, "geometry": { "type": "LineString", "coordinates": [ [ -73.837299, 40.805455 ], [ -73.837789, 40.804148 ], [ -73.847923, 40.802733 ], [ -73.848697, 40.804202 ], [ -73.847923, 40.802733 ], [ -73.872589, 40.797666 ], [ -73.88397, 40.799537 ], [ -73.890701, 40.800404 ], [ -73.900536, 40.797578 ], [ -73.911198, 40.792781 ], [ -73.926734, 40.779768 ], [ -73.939703, 40.777845 ], [ -73.942166, 40.777475 ], [ -73.939703, 40.777845 ], [ -73.956271, 40.758067 ], [ -73.968513, 40.743278 ], [ -73.970725, 40.743912 ], [ -73.968513, 40.743278 ], [ -73.970084, 40.731805 ], [ -73.972916, 40.731979 ], [ -73.970084, 40.731805 ], [ -73.969807, 40.721493 ], [ -73.972928, 40.712357 ], [ -73.975452, 40.710142 ], [ -73.980681, 40.7081 ], [ -73.990844, 40.707389 ], [ -74.005257, 40.702377 ], [ -74.006687, 40.703647 ] ] } },
{ "type": "Feature", "properties": { "Id": 0, "shape_id": "150", "route_id": "SG", "agency_id": "1", "short_name": "SG", "long_name": "St. George", "route_type": "4", "color": "D0006F", "text_color": "FFFFFF", "rt_tp_txt": "Ferry" }, "geometry": { "type": "LineString", "coordinates": [ [ -74.074226, 40.6460716 ], [ -74.0672005, 40.6489099 ], [ -74.0555085, 40.6393499 ], [ -74.0420105, 40.6379787 ], [ -74.0398085, 40.6407937 ], [ -74.038123, 40.6398566 ], [ -74.0398085, 40.6407937 ], [ -74.0240895, 40.6599407 ], [ -74.021369, 40.6784696 ], [ -74.0145206, 40.6855166 ], [ -74.0053176, 40.6932596 ], [ -74.0020496, 40.6923146 ], [ -74.0053176, 40.6932596 ], [ -74.0052356, 40.7023756 ], [ -74.0066706, 40.7036466 ] ] } },
{ "type": "Feature", "properties": { "Id": 0, "shape_id": "16", "route_id": "SG", "agency_id": "1", "short_name": "SG", "long_name": "St. George", "route_type": "4", "color": "D0006F", "text_color": "FFFFFF", "rt_tp_txt": "Ferry" }, "geometry": { "type": "LineString", "coordinates": [ [ -74.074229, 40.6460718 ], [ -74.0672005, 40.6489099 ], [ -74.060352, 40.6516478 ], [ -74.039348, 40.6760788 ], [ -74.028986, 40.6947218 ], [ -74.023903, 40.7154068 ], [ -74.0177578, 40.7150288 ], [ -74.023903, 40.7154068 ], [ -74.0136558, 40.7512748 ], [ -74.0065908, 40.7613248 ], [ -74.0040578, 40.7603228 ] ] } },
{ "type": "Feature", "properties": { "Id": 0, "shape_id": "27", "route_id": "RWS", "agency_id": "1", "short_name": "RWS", "long_name": "Rockaway West", "route_type": "3", "color": "00A1E1", "text_color": "FFFFFF", "rt_tp_txt": "Bus" }, "geometry": { "type": "LineString", "coordinates": [ [ -73.882669, 40.567389 ], [ -73.882458, 40.56702 ], [ -73.882088, 40.56639 ], [ -73.881968, 40.56657 ], [ -73.88188, 40.566688 ], [ -73.881758, 40.56685 ], [ -73.881678, 40.56692 ], [ -73.881528, 40.56702 ], [ -73.881368, 40.56709 ], [ -73.881168, 40.56713 ], [ -73.880788, 40.56714 ], [ -73.880418, 40.5671 ], [ -73.880138, 40.56712 ], [ -73.879878, 40.56716 ], [ -73.879698, 40.56721 ], [ -73.879338, 40.56741 ], [ -73.879038, 40.56753 ], [ -73.878698, 40.56768 ], [ -73.878358, 40.56782 ], [ -73.877448, 40.56823 ], [ -73.876628, 40.56862 ], [ -73.874708, 40.56954 ], [ -73.874558, 40.56961 ], [ -73.872128, 40.57077 ], [ -73.871728, 40.57094 ], [ -73.871408, 40.57104 ], [ -73.871028, 40.5711 ], [ -73.870488, 40.57112 ], [ -73.870328, 40.57112 ], [ -73.869788, 40.571 ], [ -73.869518, 40.57092 ], [ -73.869248, 40.5708 ], [ -73.868968, 40.57064 ], [ -73.868788, 40.57052 ], [ -73.868528, 40.57021 ], [ -73.868338, 40.56992 ], [ -73.868178, 40.56962 ], [ -73.868118, 40.5694 ], [ -73.868118, 40.56893 ], [ -73.868148, 40.56883 ], [ -73.868158, 40.56874 ], [ -73.868268, 40.56852 ], [ -73.868588, 40.5681 ], [ -73.868758, 40.56793 ], [ -73.869048, 40.56773 ], [ -73.869398, 40.56756 ], [ -73.869858, 40.56742 ], [ -73.871488, 40.56687 ], [ -73.871858, 40.56674 ], [ -73.872248, 40.5666 ], [ -73.872808, 40.5664 ], [ -73.872998, 40.56636 ], [ -73.873108, 40.5663 ], [ -73.873138, 40.56619 ], [ -73.873113, 40.566164 ], [ -73.873138, 40.56619 ], [ -73.873048, 40.5661 ], [ -73.872888, 40.56608 ], [ -73.869748, 40.56715 ], [ -73.868348, 40.56762 ], [ -73.867788, 40.56784 ], [ -73.867118, 40.5681 ], [ -73.865328, 40.5688 ], [ -73.864068, 40.56931 ], [ -73.863278, 40.56963 ], [ -73.862488, 40.56995 ], [ -73.862378, 40.56999 ], [ -73.861598, 40.57033 ], [ -73.860798, 40.57065 ], [ -73.860008, 40.57098 ], [ -73.859208, 40.5713 ], [ -73.858418, 40.57163 ], [ -73.858318, 40.57167 ], [ -73.857528, 40.572 ], [ -73.856728, 40.57232 ], [ -73.855938, 40.57266 ], [ -73.855138, 40.57298 ], [ -73.854348, 40.5733 ], [ -73.853558, 40.57364 ], [ -73.852738, 40.57396 ], [ -73.851958, 40.57429 ], [ -73.851168, 40.57461 ], [ -73.850358, 40.57494 ], [ -73.849578, 40.57526 ], [ -73.848788, 40.57558 ], [ -73.847978, 40.57592 ], [ -73.847138, 40.57627 ], [ -73.846308, 40.5766 ], [ -73.846208, 40.57665 ], [ -73.845508, 40.57698 ], [ -73.844698, 40.57731 ], [ -73.843878, 40.57759 ], [ -73.843058, 40.57788 ], [ -73.842218, 40.57814 ], [ -73.841388, 40.57841 ], [ -73.840568, 40.57869 ], [ -73.839748, 40.57896 ], [ -73.838928, 40.57924 ], [ -73.838098, 40.57951 ], [ -73.837278, 40.57979 ], [ -73.837128, 40.57984 ], [ -73.836718, 40.57996 ], [ -73.836278, 40.5801 ], [ -73.835428, 40.58032 ], [ -73.834578, 40.58055 ], [ -73.833728, 40.58079 ], [ -73.832948, 40.58101 ], [ -73.832878, 40.58103 ], [ -73.832778, 40.58105 ], [ -73.832448, 40.58113 ], [ -73.832028, 40.58125 ], [ -73.831928, 40.58128 ], [ -73.830878, 40.58157 ], [ -73.830768, 40.5816 ], [ -73.830108, 40.581791 ], [ -73.829908, 40.58185 ], [ -73.830228, 40.58259 ], [ -73.830678, 40.58347 ], [ -73.830948, 40.58398 ], [ -73.831178, 40.58393 ], [ -73.831728, 40.583784 ] ] } },
{ "type": "Feature", "properties": { "Id": 0, "shape_id": "35", "route_id": "RWS", "agency_id": "1", "short_name": "RWS", "long_name": "Rockaway West", "route_type": "3", "color": "00A1E1", "text_color": "FFFFFF", "rt_tp_txt": "Bus" }, "geometry": { "type": "LineString", "coordinates": [ [ -73.831326, 40.583887 ], [ -73.83343, 40.58333 ], [ -73.83458, 40.58296 ], [ -73.83552, 40.58266 ], [ -73.83611, 40.58248 ], [ -73.83636, 40.5824 ], [ -73.83673, 40.58228 ], [ -73.83741, 40.58206 ], [ -73.837446, 40.582048 ], [ -73.83789, 40.58191 ], [ -73.83813, 40.58185 ], [ -73.83839, 40.58177 ], [ -73.83727, 40.57979 ], [ -73.83809, 40.57951 ], [ -73.83892, 40.57924 ], [ -73.83974, 40.57896 ], [ -73.84056, 40.57869 ], [ -73.84138, 40.57841 ], [ -73.84221, 40.57814 ], [ -73.84305, 40.57788 ], [ -73.84387, 40.57759 ], [ -73.84469, 40.57731 ], [ -73.8455, 40.57698 ], [ -73.845988, 40.576817 ], [ -73.84637, 40.57669 ], [ -73.84718, 40.57635 ], [ -73.84801, 40.57601 ], [ -73.84884, 40.57567 ], [ -73.84963, 40.57535 ], [ -73.8504, 40.57502 ], [ -73.85122, 40.5747 ], [ -73.85202, 40.57437 ], [ -73.85279, 40.57405 ], [ -73.8536, 40.57372 ], [ -73.85439, 40.5734 ], [ -73.85518, 40.57307 ], [ -73.85597, 40.57274 ], [ -73.85677, 40.57242 ], [ -73.85758, 40.5721 ], [ -73.85837, 40.57178 ], [ -73.85847, 40.57174 ], [ -73.858523, 40.571718 ], [ -73.85927, 40.57141 ], [ -73.86006, 40.57108 ], [ -73.86085, 40.57075 ], [ -73.86165, 40.57043 ], [ -73.86244, 40.57011 ], [ -73.86255, 40.57007 ], [ -73.86333, 40.56974 ], [ -73.86412, 40.56941 ], [ -73.86469, 40.56922 ], [ -73.86509, 40.56911 ], [ -73.8655, 40.56904 ], [ -73.86581, 40.56901 ], [ -73.86611, 40.56902 ], [ -73.86654, 40.5691 ], [ -73.86693, 40.56921 ], [ -73.8671, 40.5693 ], [ -73.8673, 40.56932 ], [ -73.86746, 40.56931 ], [ -73.86771, 40.56925 ], [ -73.86794, 40.56912 ], [ -73.86801, 40.56906 ], [ -73.86811, 40.56893 ], [ -73.86814, 40.56883 ], [ -73.86815, 40.56874 ], [ -73.86826, 40.56852 ], [ -73.86858, 40.5681 ], [ -73.86875, 40.56793 ], [ -73.86904, 40.56773 ], [ -73.8691, 40.5677 ], [ -73.86939, 40.56756 ], [ -73.86985, 40.56742 ], [ -73.87148, 40.56687 ], [ -73.87185, 40.56674 ], [ -73.87224, 40.5666 ], [ -73.8728, 40.5664 ], [ -73.87299, 40.56636 ], [ -73.873048, 40.566328 ], [ -73.8731, 40.5663 ], [ -73.87313, 40.56619 ], [ -73.87304, 40.5661 ], [ -73.87288, 40.56608 ], [ -73.87266, 40.56615 ], [ -73.872457, 40.56622 ], [ -73.87171, 40.56647 ], [ -73.87139, 40.56658 ], [ -73.86974, 40.56715 ], [ -73.86834, 40.56762 ], [ -73.86778, 40.56784 ], [ -73.86711, 40.5681 ], [ -73.86687, 40.56818 ], [ -73.86671, 40.5683 ], [ -73.86662, 40.56839 ], [ -73.86656, 40.56856 ], [ -73.86656, 40.56874 ], [ -73.86658, 40.56884 ], [ -73.86671, 40.56904 ], [ -73.86682, 40.56913 ], [ -73.86693, 40.56921 ], [ -73.8671, 40.5693 ], [ -73.86733, 40.56945 ], [ -73.8675, 40.5696 ], [ -73.86776, 40.56992 ], [ -73.86787, 40.57007 ], [ -73.86817, 40.57048 ], [ -73.86852, 40.57086 ], [ -73.86871, 40.57103 ], [ -73.86896, 40.57118 ], [ -73.8693, 40.57135 ], [ -73.86963, 40.57145 ], [ -73.86993, 40.5715 ], [ -73.87041, 40.57152 ], [ -73.87065, 40.57152 ], [ -73.871, 40.57148 ], [ -73.87128, 40.57141 ], [ -73.87225, 40.57099 ], [ -73.87485, 40.56974 ], [ -73.87668, 40.56885 ], [ -73.87736, 40.56867 ], [ -73.87761, 40.568613 ], [ -73.87789, 40.56855 ], [ -73.87844, 40.56848 ], [ -73.87968, 40.56838 ], [ -73.87988, 40.56834 ], [ -73.88019, 40.56825 ], [ -73.88116, 40.56785 ], [ -73.88128, 40.56781 ], [ -73.88146, 40.56775 ], [ -73.88171, 40.56769 ], [ -73.882, 40.56764 ], [ -73.88238, 40.56761 ], [ -73.88278, 40.56755 ], [ -73.88269, 40.56744 ], [ -73.882482, 40.567076 ] ] } },
{ "type": "Feature", "properties": { "Id": 0, "shape_id": "44", "route_id": "RES", "agency_id": "1", "short_name": "RES", "long_name": "Rockaway East", "route_type": "3", "color": "00A1E1", "text_color": "FFFFFF", "rt_tp_txt": "Bus" }, "geometry": { "type": "LineString", "coordinates": [ [ -73.768893, 40.596192 ], [ -73.769748, 40.5961 ], [ -73.770648, 40.596 ], [ -73.771498, 40.59591 ], [ -73.772308, 40.59579 ], [ -73.772818, 40.59577 ], [ -73.773868, 40.59576 ], [ -73.774588, 40.59573 ], [ -73.774768, 40.59573 ], [ -73.775718, 40.59567 ], [ -73.776548, 40.59561 ], [ -73.777388, 40.59555 ], [ -73.778218, 40.5955 ], [ -73.779028, 40.59545 ], [ -73.779938, 40.59538 ], [ -73.780918, 40.59532 ], [ -73.781115, 40.595307 ], [ -73.781838, 40.59526 ], [ -73.782698, 40.5952 ], [ -73.783608, 40.59514 ], [ -73.784128, 40.5951 ], [ -73.784548, 40.59507 ], [ -73.785508, 40.595 ], [ -73.785728, 40.59498 ], [ -73.786258, 40.59494 ], [ -73.786938, 40.59488 ], [ -73.787078, 40.59485 ], [ -73.787228, 40.59481 ], [ -73.788078, 40.59447 ], [ -73.789128, 40.59404 ], [ -73.789038, 40.59298 ], [ -73.788938, 40.59215 ], [ -73.789648, 40.59208 ], [ -73.790528, 40.59189 ], [ -73.791378, 40.59189 ], [ -73.791678, 40.59185 ], [ -73.794288, 40.59117 ], [ -73.795118, 40.59095 ], [ -73.795908, 40.59075 ], [ -73.797858, 40.59018 ], [ -73.798438, 40.58999 ], [ -73.799338, 40.58969 ], [ -73.800178, 40.5894 ], [ -73.800958, 40.58913 ], [ -73.801118, 40.58909 ], [ -73.801998, 40.58887 ], [ -73.802798, 40.58865 ], [ -73.803538, 40.58845 ], [ -73.803888, 40.5884 ], [ -73.804308, 40.5883 ], [ -73.805138, 40.58821 ], [ -73.806348, 40.58808 ], [ -73.807278, 40.58799 ], [ -73.807448, 40.588 ], [ -73.809858, 40.58774 ], [ -73.810628, 40.58767 ], [ -73.811098, 40.5876 ], [ -73.811238, 40.58755 ], [ -73.812158, 40.58744 ], [ -73.812448, 40.58741 ], [ -73.813048, 40.58735 ], [ -73.813848, 40.58712 ], [ -73.814648, 40.58678 ], [ -73.815438, 40.58646 ], [ -73.816558, 40.586 ], [ -73.816698, 40.58593 ], [ -73.817168, 40.58571 ], [ -73.817278, 40.58566 ], [ -73.818048, 40.58531 ], [ -73.818798, 40.58495 ], [ -73.819568, 40.58459 ], [ -73.820338, 40.58422 ], [ -73.821098, 40.58386 ], [ -73.821718, 40.58357 ], [ -73.822578, 40.58315 ], [ -73.823068, 40.5839 ], [ -73.826068, 40.58301 ], [ -73.827658, 40.58255 ], [ -73.829158, 40.58208 ], [ -73.829588, 40.58195 ], [ -73.830058, 40.58242 ], [ -73.830228, 40.58259 ], [ -73.830678, 40.58347 ], [ -73.830698, 40.5835 ], [ -73.830908, 40.5839 ], [ -73.830948, 40.58398 ], [ -73.831178, 40.58393 ], [ -73.831728, 40.583784 ] ] } },
{ "type": "Feature", "properties": { "Id": 0, "shape_id": "9", "route_id": "ER", "agency_id": "1", "short_name": "ER", "long_name": "East River", "route_type": "4", "color": "00839C", "text_color": "FFFFFF", "rt_tp_txt": "Ferry" }, "geometry": { "type": "LineString", "coordinates": [ [ -74.006693, 40.703647 ], [ -74.005259, 40.702377 ], [ -73.996646, 40.704159 ], [ -73.995671, 40.703652 ], [ -73.996646, 40.704159 ], [ -73.97258, 40.710119 ], [ -73.970224, 40.708743 ], [ -73.97258, 40.710119 ], [ -73.967308, 40.722012 ], [ -73.964902, 40.720838 ], [ -73.967308, 40.722012 ], [ -73.964842, 40.731406 ], [ -73.963617, 40.731365 ], [ -73.964842, 40.731406 ], [ -73.964519, 40.742134 ], [ -73.961322, 40.741838 ], [ -73.964519, 40.742134 ], [ -73.967329, 40.742936 ], [ -73.970731, 40.743912 ] ] } }
]
}
